{"type":"FeatureCollection","features":[{"id":"0","type":"Feature","properties":{"NOME":"Amazônia Legal","AREA_KM2":5014107.875},"geometry":{"type":"MultiPolygon","coordinates":[[[[-43.99999999999994,-6.758044188983071],[-44.0574593,-6.7744419],[-44.0696971,-6.8213775],[-44.0888742,-6.8033012],[-44.1162756,-6.8057859],[-44.1006495,-6.8511421],[-44.1251239,-6.8355852],[-44.171346,-6.8849772],[-44.1750389,-6.9251698],[-44.1986023,-6.9297624],[-44.2081719,-6.9699452],[-44.2359545,-6.9987123],[-44.2622947,-7.0013021],[-44.2741171,-7.0702438],[-44.3051848,-7.1178122],[-44.3324675,-7.1086126],[-44.3860639,-7.1209154],[-44.5052426,-7.1867558],[-44.5251494,-7.2219993],[-44.5641953,-7.227708],[-44.6158702,-7.3086662],[-44.6627305,-7.3313481],[-44.688641,-7.3949088],[-44.7299293,-7.3907703],[-44.7419808,-7.3617039],[-44.7803456,-7.3785175],[-44.8164962,-7.3608938],[-44.8697051,-7.4230572],[-44.9004353,-7.4254106],[-44.9248163,-7.4705294],[-44.9870148,-7.4811379],[-45.0492328,-7.5132098],[-45.0843087,-7.5021569],[-45.1386746,-7.5224223],[-45.155528,-7.5129145],[-45.2184888,-7.5685448],[-45.2323263,-7.5490714],[-45.2617074,-7.5711843],[-45.3346804,-7.5776595],[-45.3721818,-7.6183838],[-45.3954669,-7.6145185],[-45.399205,-7.6410589],[-45.43751,-7.6780512],[-45.4596006,-7.6728035],[-45.4488146,-7.6853563],[-45.4700819,-7.6898976],[-45.4821268,-7.7496732],[-45.4964303,-7.7477671],[-45.4895111,-7.7862569],[-45.5407541,-7.8640562],[-45.520421,-7.8856094],[-45.5432695,-7.8972693],[-45.5237299,-7.9107689],[-45.544477,-7.92008],[-45.5475416,-7.9679964],[-45.5681098,-7.9941221],[-45.5510972,-8.0145188],[-45.5776554,-8.0283313],[-45.5630388,-8.0456436],[-45.5863043,-8.096403],[-45.5837278,-8.1569362],[-45.6130574,-8.1865142],[-45.609782,-8.2054181],[-45.6636264,-8.2505308],[-45.6905796,-8.3558112],[-45.7449161,-8.4491543],[-45.7386778,-8.5006556],[-45.7538373,-8.5420633],[-45.7945868,-8.5837115],[-45.7661906,-8.6095456],[-45.798566,-8.6136285],[-45.8400296,-8.7151237],[-45.8642273,-8.715523],[-45.8637039,-8.7299647],[-45.8898847,-8.7392622],[-45.8918982,-8.7627574],[-45.9368867,-8.7801617],[-45.9607222,-8.8178942],[-45.9453155,-8.8388644],[-45.9723991,-8.8628377],[-45.9940515,-8.9372444],[-45.943779,-9.0151149],[-45.9232199,-9.0899924],[-45.9287415,-9.137588],[-45.8976886,-9.1852978],[-45.9032787,-9.316408],[-45.888466,-9.3485263],[-45.824147,-9.375261],[-45.7834353,-9.4794771],[-45.8419325,-9.5628899],[-45.8203869,-9.6179128],[-45.8385678,-9.6963177],[-45.8214206,-9.7731271],[-45.8662777,-9.870719],[-45.8422862,-9.9415579],[-45.8801961,-10.058594],[-45.8773445,-10.1065865],[-45.945619,-10.1964425],[-45.9560735,-10.2210775],[-45.9462653,-10.2585499],[-46.0124233,-10.2506961],[-46.0282068,-10.2771033],[-45.9998711,-10.2966799],[-45.9711149,-10.3589393],[-45.9109369,-10.3710886],[-45.8871714,-10.3404619],[-45.9156318,-10.3126645],[-45.8967285,-10.2642902],[-45.8707602,-10.2500288],[-45.7937433,-10.2676724],[-45.7606943,-10.2506189],[-45.7331878,-10.2271753],[-45.7234839,-10.1554127],[-45.7019773,-10.1793504],[-45.6992647,-10.2585673],[-45.7268896,-10.3125357],[-45.7981846,-10.3232473],[-45.8206429,-10.457259],[-45.8708973,-10.5032789],[-46.1497049,-10.6359108],[-46.1607629,-10.659439],[-46.1503463,-10.691554],[-46.195922,-10.745224],[-46.206199,-10.8004666],[-46.2264451,-10.7829371],[-46.260537,-10.8120374],[-46.2672663,-10.9348023],[-46.3415579,-10.9390123],[-46.5522029,-11.262799],[-46.5772829,-11.3598507],[-46.5320213,-11.3746657],[-46.5240555,-11.4636343],[-46.4404346,-11.520789],[-46.3481413,-11.5066007],[-46.2504813,-11.536689],[-46.2093463,-11.5853507],[-46.0808942,-11.6240112],[-46.1444858,-11.6243474],[-46.1572177,-11.6514962],[-46.2246953,-11.6396881],[-46.2443367,-11.6052282],[-46.2867875,-11.6158247],[-46.3255783,-11.5995809],[-46.3456447,-11.6192057],[-46.3848704,-11.6252044],[-46.3956971,-11.6425275],[-46.3401945,-11.6395843],[-46.3384623,-11.6718921],[-46.3077347,-11.6864407],[-46.3335417,-11.7102087],[-46.3217632,-11.7134712],[-46.3366922,-11.7395671],[-46.3785453,-11.7485209],[-46.3751048,-11.7685988],[-46.3436773,-11.7600875],[-46.3609362,-11.7789513],[-46.3280101,-11.7713735],[-46.3484915,-11.7858466],[-46.337911,-11.814101],[-46.3586554,-11.8125035],[-46.3505631,-11.8373755],[-46.3811345,-11.8376923],[-46.3706583,-11.8895899],[-46.3530272,-11.8843192],[-46.3254314,-11.9090391],[-46.2822315,-11.9182013],[-46.1800398,-11.9070912],[-46.2330576,-11.9364818],[-46.3154903,-11.941993],[-46.3871797,-11.9972723],[-46.4002362,-12.024813],[-46.4082595,-12.0095737],[-46.4227903,-12.0297473],[-46.4797997,-12.0473591],[-46.3844223,-12.0517563],[-46.3960143,-12.0615752],[-46.3826408,-12.0839535],[-46.3985913,-12.0914434],[-46.3711652,-12.0997193],[-46.3715438,-12.1232291],[-46.3886491,-12.1563416],[-46.4064905,-12.1570139],[-46.3810937,-12.1810752],[-46.4102142,-12.1986344],[-46.3774062,-12.1965471],[-46.3834216,-12.2126031],[-46.3650056,-12.2170203],[-46.3880217,-12.2446074],[-46.3695687,-12.2674682],[-46.3848433,-12.2967185],[-46.3445332,-12.3028201],[-46.3774158,-12.352775],[-46.3398231,-12.3514974],[-46.3630939,-12.3670816],[-46.3133862,-12.357195],[-46.2898836,-12.376653],[-46.3273316,-12.4191311],[-46.3403618,-12.4144423],[-46.3298231,-12.4351477],[-46.3405437,-12.4522985],[-46.3155489,-12.4634304],[-46.304953,-12.416946],[-46.2853454,-12.4321699],[-46.2820954,-12.4159878],[-46.2698581,-12.4305116],[-46.2802743,-12.4597191],[-46.2609987,-12.4738502],[-46.2726245,-12.5145984],[-46.2508606,-12.502217],[-46.198213,-12.5039588],[-46.2729134,-12.55026],[-46.2716121,-12.5700454],[-46.2935417,-12.5790284],[-46.2976461,-12.563339],[-46.3075674,-12.5767478],[-46.2757846,-12.5944306],[-46.3104042,-12.642678],[-46.2763752,-12.6410285],[-46.2639272,-12.6582931],[-46.3057156,-12.6885262],[-46.2917518,-12.6990744],[-46.3040783,-12.7149422],[-46.2680805,-12.7161568],[-46.2737155,-12.7388185],[-46.2958822,-12.744723],[-46.2818857,-12.7708508],[-46.3120784,-12.7982098],[-46.2915915,-12.7962978],[-46.3004892,-12.8115565],[-46.2791435,-12.8114029],[-46.2735162,-12.8315515],[-46.3050221,-12.8687425],[-46.2870007,-12.8934265],[-46.3127132,-12.9112915],[-46.3059744,-12.9390733],[-46.3300763,-12.9578517],[-46.265437,-12.9387891],[-46.2055999,-12.9506776],[-46.1633584,-12.9240508],[-46.1495824,-12.9329974],[-46.1266475,-12.9123867],[-46.112965,-12.9180104],[-46.195902,-12.956977],[-46.3644039,-12.9907429],[-46.3769813,-12.963502],[-46.3601234,-12.9085652],[-46.3657643,-12.863354],[-46.4091181,-12.8455928],[-46.4179848,-12.8224367],[-46.4325688,-12.9306408],[-46.4546499,-12.9711526],[-46.750611,-12.969155],[-46.8198975,-13.0016866],[-46.8544978,-13.0675267],[-46.8916768,-13.0523851],[-46.9790157,-13.1317672],[-47.0020989,-13.1216848],[-47.0194517,-13.1459177],[-47.0802936,-13.161876],[-47.0879195,-13.1818323],[-47.1321165,-13.1778641],[-47.1356895,-13.2037522],[-47.1539664,-13.2102795],[-47.1837871,-13.2047187],[-47.183741,-13.1874468],[-47.2296138,-13.1947384],[-47.2821518,-13.2651268],[-47.2955945,-13.2485709],[-47.3238054,-13.2582586],[-47.3775667,-13.2290866],[-47.4261275,-13.2899799],[-47.4544222,-13.2505276],[-47.4345238,-13.2287801],[-47.4864138,-13.2197336],[-47.4783804,-13.1849576],[-47.5578012,-13.1868503],[-47.5637956,-13.119051],[-47.633645,-13.1011799],[-47.6437042,-13.1495527],[-47.6689912,-13.1668373],[-47.6542291,-13.1770942],[-47.6675997,-13.2108827],[-47.639661,-13.2642926],[-47.6614696,-13.3027767],[-47.6500735,-13.3491826],[-47.6222932,-13.369192],[-47.6797484,-13.4681748],[-47.8202144,-13.3125234],[-47.8844277,-13.3207214],[-47.9363044,-13.2898552],[-47.9667043,-13.3150807],[-47.983485,-13.279085],[-48.0252513,-13.2798336],[-48.0306768,-13.2572065],[-48.0522263,-13.2567218],[-48.0624559,-13.2357212],[-48.0791539,-13.2426409],[-48.0824617,-13.289546],[-48.1648231,-13.3066603],[-48.1532145,-13.2783113],[-48.1689012,-13.2398788],[-48.1526888,-13.2179747],[-48.1659237,-13.1892998],[-48.1436592,-13.1524725],[-48.1872889,-13.1535506],[-48.193604,-13.1730343],[-48.2316224,-13.1691564],[-48.2501421,-13.1969391],[-48.2880402,-13.2048102],[-48.3079536,-13.2372221],[-48.3422626,-13.2282026],[-48.3401125,-13.2482578],[-48.3621149,-13.2429505],[-48.3854841,-13.2662822],[-48.430047,-13.2711776],[-48.4419089,-13.2923422],[-48.4600997,-13.2812731],[-48.4568498,-13.2480693],[-48.4755457,-13.2349601],[-48.4699647,-13.1373098],[-48.4797927,-13.1526729],[-48.4946538,-13.1368825],[-48.5181032,-13.1395218],[-48.5296886,-13.1914152],[-48.5537521,-13.2035451],[-48.5535925,-13.3026334],[-48.5860898,-13.3216005],[-48.5998849,-13.2931496],[-48.5872119,-13.2539408],[-48.5999452,-13.2386606],[-48.5844342,-13.2270548],[-48.5775353,-13.1732753],[-48.5973528,-13.1521039],[-48.5759193,-13.1241598],[-48.5956739,-13.1064777],[-48.6005347,-13.0588535],[-48.6270522,-13.0519085],[-48.6385121,-13.0136178],[-48.6707093,-12.9949939],[-48.7071636,-13.0044267],[-48.7297896,-12.9893834],[-48.7351342,-12.9210739],[-48.8142824,-12.8635363],[-48.8200488,-12.8434233],[-48.8428259,-12.8425068],[-48.8568728,-12.8043575],[-48.8703122,-12.8032618],[-48.9762335,-12.9578931],[-49.0217742,-12.9063237],[-49.0792038,-12.904009],[-49.0874736,-12.887177],[-49.0642475,-12.8460871],[-49.1046307,-12.8354203],[-49.118877,-12.7895192],[-49.2106839,-12.8779345],[-49.2376552,-12.8837861],[-49.2790904,-12.9883092],[-49.350967,-13.0887264],[-49.3410799,-13.1274961],[-49.3557086,-13.1557731],[-49.3372447,-13.2472816],[-49.3683159,-13.2723014],[-49.9203946,-12.961384],[-50.0168885,-12.929102],[-50.0396484,-12.9353875],[-50.0780612,-12.9056506],[-50.1838006,-12.8973567],[-50.225444,-12.8599517],[-50.2928427,-12.8384694],[-50.3109562,-12.7979418],[-50.2832766,-12.7177793],[-50.2990728,-12.6801771],[-50.2653247,-12.6821722],[-50.2611873,-12.6364747],[-50.2363815,-12.6236716],[-50.2375277,-12.5787353],[-50.2240634,-12.5852615],[-50.1919845,-12.5621611],[-50.2112595,-12.5603428],[-50.2295244,-12.531189],[-50.2176095,-12.4873571],[-50.141802,-12.3953956],[-50.1711175,-12.4053503],[-50.1731668,-12.4223333],[-50.19472,-12.4117061],[-50.1846826,-12.4325312],[-50.3114646,-12.4960796],[-50.3244294,-12.5071773],[-50.3132208,-12.5210923],[-50.3284935,-12.5137429],[-50.3314959,-12.5354838],[-50.3659843,-12.5455011],[-50.3661794,-12.5732354],[-50.3983839,-12.6014906],[-50.3908224,-12.611461],[-50.4181009,-12.6244473],[-50.4123674,-12.6482935],[-50.4260506,-12.6415525],[-50.4404503,-12.6522537],[-50.4269276,-12.6524882],[-50.4327131,-12.6915224],[-50.4786553,-12.7112831],[-50.4650891,-12.7308029],[-50.4874094,-12.7451064],[-50.4677977,-12.7542594],[-50.4932856,-12.7836871],[-50.4838415,-12.8105787],[-50.5109811,-12.8608983],[-50.4985856,-12.8772651],[-50.5263757,-12.9339305],[-50.5241438,-12.9736516],[-50.592942,-13.0034889],[-50.5688148,-13.0400332],[-50.6100443,-13.0603692],[-50.5916255,-13.1079504],[-50.6059358,-13.1875102],[-50.5841755,-13.2176963],[-50.6085957,-13.3175954],[-50.6653237,-13.3755658],[-50.6639456,-13.4349565],[-50.7589998,-13.5203153],[-50.7684327,-13.5955201],[-50.8062258,-13.6938146],[-50.8732996,-13.7324117],[-50.853563,-13.7609768],[-50.8590855,-13.8287048],[-50.8406443,-13.8637887],[-50.8402336,-13.9236819],[-50.8663329,-13.979648],[-50.8471508,-13.9997948],[-50.8560626,-14.0209672],[-50.8317317,-14.0860521],[-50.8518089,-14.1176257],[-50.8865272,-14.1321283],[-50.9037008,-14.1102235],[-50.9179686,-14.1160917],[-50.9137226,-14.1685097],[-50.9781733,-14.2972436],[-50.9661172,-14.3271168],[-50.9978306,-14.4156747],[-50.9627206,-14.5239073],[-50.9962494,-14.5746109],[-50.9928355,-14.6124579],[-51.0266586,-14.6593581],[-51.029233,-14.7074084],[-51.0582449,-14.75167],[-51.0448213,-14.7928386],[-51.0896375,-14.8401805],[-51.0871098,-14.9213487],[-51.1449181,-14.9434106],[-51.15705,-14.985611],[-51.2676087,-15.044413],[-51.295042,-15.0302486],[-51.3042871,-14.9844838],[-51.3290309,-14.9696173],[-51.3682419,-15.0095731],[-51.4269632,-15.0076659],[-51.4620029,-15.0479797],[-51.5308556,-15.061676],[-51.5953418,-15.1551845],[-51.651158,-15.1772548],[-51.6719626,-15.2478092],[-51.6456551,-15.2649953],[-51.6882961,-15.3116252],[-51.669531,-15.374421],[-51.6972226,-15.4091862],[-51.6912832,-15.4308953],[-51.7094595,-15.4594918],[-51.6994028,-15.4879127],[-51.7360503,-15.5098961],[-51.7255764,-15.544129],[-51.7393436,-15.5592768],[-51.7556134,-15.5574154],[-51.760886,-15.5300637],[-51.7772681,-15.534985],[-51.7571321,-15.6334465],[-51.8826701,-15.8284853],[-51.9484549,-15.8100984],[-51.9548857,-15.8386514],[-51.9813041,-15.8425042],[-52.0145457,-15.8870191],[-52.1096389,-15.882653],[-52.1313821,-15.8954985],[-52.1926654,-15.880842],[-52.2533433,-15.8925619],[-52.2568953,-15.9308847],[-52.2903395,-15.9655472],[-52.3299379,-16.0721758],[-52.4985674,-16.1421392],[-52.516075,-16.1339059],[-52.5491659,-16.1649955],[-52.545272,-16.2226104],[-52.5696204,-16.2286062],[-52.5466156,-16.2608793],[-52.5776823,-16.249637],[-52.5891948,-16.269497],[-52.6246927,-16.2868043],[-52.6579667,-16.2800754],[-52.6825566,-16.3017423],[-52.687412,-16.3990005],[-52.6438708,-16.412012],[-52.6207562,-16.4653331],[-52.6047449,-16.4634543],[-52.6127559,-16.5017547],[-52.6373397,-16.5028564],[-52.6255896,-16.5230176],[-52.6356345,-16.55178],[-52.6489543,-16.5473196],[-52.6514982,-16.561995],[-52.6679575,-16.5510692],[-52.659646,-16.5709507],[-52.6729273,-16.5696264],[-52.6743564,-16.5852848],[-52.7060864,-16.5719292],[-52.7052162,-16.5992671],[-52.7400847,-16.5899573],[-52.7410464,-16.6106916],[-52.7149919,-16.6387918],[-52.724186,-16.6469772],[-52.7461918,-16.6306989],[-52.7401494,-16.6570173],[-52.7712914,-16.6694258],[-52.755119,-16.6722833],[-52.7597734,-16.7040123],[-52.7856585,-16.714447],[-52.7866649,-16.7427281],[-52.8081932,-16.7422776],[-52.8316749,-16.7721107],[-52.8844177,-16.7764073],[-52.9232654,-16.8182183],[-52.933063,-16.8031414],[-52.9448026,-16.8129783],[-52.9269888,-16.8407171],[-52.9528954,-16.8409497],[-52.9450246,-16.8551914],[-52.957221,-16.8504696],[-52.9634774,-16.8670908],[-53.0144172,-16.8615799],[-53.0191666,-16.9002232],[-53.0394551,-16.9126931],[-53.0350329,-16.9424731],[-53.0564205,-16.9638567],[-53.0537598,-17.0191041],[-53.071421,-17.0496052],[-53.060407,-17.0470851],[-53.0554181,-17.070598],[-53.1183103,-17.1132204],[-53.1275167,-17.1545758],[-53.1566662,-17.1706845],[-53.1651606,-17.2209447],[-53.2186298,-17.2980867],[-53.1967983,-17.3797969],[-53.2331578,-17.440824],[-53.2234972,-17.4586332],[-53.2449863,-17.526047],[-53.2442799,-17.6899495],[-53.2349967,-17.7138196],[-53.1641266,-17.7655378],[-53.1316128,-17.8355263],[-53.1265677,-17.9154211],[-53.0875603,-17.9435237],[-53.0645116,-17.9884003],[-53.0722775,-18.0339753],[-53.174326,-18.0415982],[-53.2415444,-18.0047098],[-53.2991741,-17.9954821],[-53.3807712,-18.0087572],[-53.4304082,-17.983991],[-53.4572943,-17.999699],[-53.4725785,-18.0391488],[-53.5572373,-18.005655],[-53.5895447,-18.0126116],[-53.6161304,-17.9761887],[-53.6612454,-17.9775123],[-53.694823,-18.0132922],[-53.7192955,-17.9980701],[-53.7839412,-17.9959674],[-53.8600553,-17.9211593],[-53.8985506,-17.9088024],[-53.9489149,-17.9234238],[-53.9544371,-17.8686163],[-53.8559091,-17.7027172],[-53.8002416,-17.6707893],[-53.7046075,-17.6635095],[-53.6800749,-17.2535697],[-53.705145,-17.2281538],[-53.7590784,-17.2431425],[-53.7857133,-17.2875151],[-53.8200727,-17.2946157],[-53.8313233,-17.3550204],[-53.8784388,-17.3751986],[-53.9522467,-17.4593374],[-54.0376378,-17.4864488],[-54.0580771,-17.5131293],[-54.051633,-17.5627701],[-54.0846925,-17.6190348],[-54.1788328,-17.6028511],[-54.2745496,-17.6540482],[-54.3355849,-17.6617231],[-54.3866931,-17.6353623],[-54.3744168,-17.6085775],[-54.382941,-17.571533],[-54.4214724,-17.5364955],[-54.4669149,-17.5290742],[-54.4813092,-17.4876648],[-54.536332,-17.4775852],[-54.5541884,-17.4886684],[-54.5816628,-17.468007],[-54.6173362,-17.4904239],[-54.6846928,-17.5071727],[-54.6997229,-17.4973806],[-54.7188045,-17.5183647],[-54.746913,-17.5199422],[-54.7587809,-17.5656964],[-54.8608638,-17.6238535],[-54.9434244,-17.6090284],[-54.9918341,-17.6383992],[-55.0107532,-17.6293403],[-55.0638153,-17.6424599],[-55.1087577,-17.6286604],[-55.127256,-17.6527223],[-55.170614,-17.640834],[-55.1838952,-17.6198054],[-55.2214997,-17.6170993],[-55.2944231,-17.541726],[-55.3506728,-17.5485584],[-55.3771133,-17.5150426],[-55.382335,-17.5254759],[-55.4437374,-17.5117761],[-55.4726421,-17.4813564],[-55.5240893,-17.4811765],[-55.575339,-17.4187999],[-55.5870628,-17.4217067],[-55.5856091,-17.3736172],[-55.6263398,-17.3640297],[-55.6400301,-17.3397179],[-55.6445902,-17.3592215],[-55.6565673,-17.3382621],[-55.6681051,-17.3506871],[-55.6932286,-17.3398902],[-55.7013468,-17.3541295],[-55.7090975,-17.3376157],[-55.7215605,-17.3494956],[-55.7612066,-17.323532],[-55.7876445,-17.3286458],[-55.8044035,-17.2994263],[-55.8280394,-17.306604],[-55.8274548,-17.2883722],[-55.8419202,-17.3012323],[-55.8748111,-17.2686349],[-55.8865622,-17.2847647],[-55.9019263,-17.2734008],[-55.8865379,-17.2638991],[-55.9263405,-17.2578599],[-55.9413141,-17.2778839],[-55.9519244,-17.2501984],[-55.9808137,-17.2467],[-55.9869583,-17.2584803],[-55.9887364,-17.2415165],[-56.0107854,-17.2390433],[-56.0086276,-17.2141904],[-56.0209846,-17.2136424],[-56.0055102,-17.2041968],[-56.0441193,-17.1713951],[-56.0509842,-17.1869482],[-56.0616804,-17.1707109],[-56.1139547,-17.1666306],[-56.13987,-17.1911918],[-56.185432,-17.1892326],[-56.1891495,-17.2103683],[-56.213015,-17.2106143],[-56.2087656,-17.2272692],[-56.2513448,-17.2190231],[-56.2565481,-17.2437918],[-56.2854023,-17.2474185],[-56.2978498,-17.2765881],[-56.313541,-17.2694291],[-56.3358736,-17.2899485],[-56.3566795,-17.2670499],[-56.442331,-17.3312821],[-56.4523737,-17.3101756],[-56.5017688,-17.2863254],[-56.5271804,-17.3211576],[-56.5711628,-17.3153017],[-56.5958923,-17.3325444],[-56.6250183,-17.3220855],[-56.6304387,-17.334201],[-56.6474379,-17.3169871],[-56.6454628,-17.3393477],[-56.6567113,-17.3214415],[-56.663575,-17.3388297],[-56.6831814,-17.3165664],[-56.6959101,-17.3269388],[-56.7338542,-17.3098602],[-56.7688745,-17.3408587],[-56.7628762,-17.3606392],[-56.7867493,-17.3705049],[-56.7878621,-17.3895449],[-56.8297428,-17.3913258],[-56.842018,-17.4181893],[-56.8197009,-17.4316918],[-56.8409099,-17.4420086],[-56.8254125,-17.4588917],[-56.8619646,-17.4839069],[-56.8759675,-17.5329722],[-56.9095763,-17.5325464],[-56.9823557,-17.580233],[-56.9814111,-17.6110155],[-56.9591079,-17.6128389],[-57.0333769,-17.6947412],[-57.0449146,-17.7303213],[-57.0739121,-17.7354635],[-57.1156078,-17.7810863],[-57.1467441,-17.7675051],[-57.2520237,-17.793456],[-57.2326331,-17.8123841],[-57.2833304,-17.822694],[-57.3080841,-17.8108073],[-57.3534564,-17.8378584],[-57.3764978,-17.8257636],[-57.4467253,-17.8745041],[-57.4538878,-17.9027527],[-57.4775858,-17.8590533],[-57.519111,-17.8616577],[-57.5763315,-17.8005284],[-57.6058838,-17.8023394],[-57.6125832,-17.7794112],[-57.6009505,-17.7752907],[-57.6403039,-17.7173593],[-57.6635542,-17.7298538],[-57.6846131,-17.7164815],[-57.6688377,-17.6719065],[-57.7250315,-17.5310124],[-57.7522947,-17.5644631],[-57.8834421,-17.449542],[-57.9929736,-17.5150583],[-58.0433869,-17.4926684],[-58.0601442,-17.450721],[-58.0892817,-17.461136],[-58.1183906,-17.4503746],[-58.1228699,-17.4146831],[-58.1454784,-17.4136682],[-58.1515816,-17.3846506],[-58.1904809,-17.3898102],[-58.2022021,-17.3570336],[-58.2645177,-17.3450889],[-58.2783215,-17.2997756],[-58.3000924,-17.2985579],[-58.2941927,-17.2853037],[-58.3657057,-17.1990204],[-58.3989418,-17.1839841],[-58.3940492,-17.015023],[-58.4169635,-16.9817817],[-58.4447359,-16.983811],[-58.4631428,-16.9619989],[-58.4587514,-16.9382426],[-58.476813,-16.9366654],[-58.4605127,-16.9013827],[-58.4582178,-16.8265958],[-58.4786357,-16.8141864],[-58.4595022,-16.7863833],[-58.4716637,-16.7081659],[-58.4361826,-16.5929472],[-58.369464,-16.5439833],[-58.3342233,-16.4903079],[-58.3565195,-16.427264],[-58.3443715,-16.3903975],[-58.3073123,-16.3707466],[-58.3040225,-16.309149],[-58.3221654,-16.2663526],[-58.3659125,-16.2737165],[-58.3886586,-16.2613942],[-58.3943304,-16.2960971],[-58.4306487,-16.3226785],[-60.174061,-16.2669185],[-60.2395493,-15.4745501],[-60.5757043,-15.0975225],[-60.2449613,-15.0974841],[-60.2732752,-14.6210446],[-60.3230925,-14.6104699],[-60.3395834,-14.5103695],[-60.407699,-14.4137442],[-60.3954474,-14.3650449],[-60.4110252,-14.368753],[-60.4058636,-14.3561753],[-60.4541064,-14.3133177],[-60.4671314,-14.2651494],[-60.4497461,-14.2407579],[-60.4658829,-14.2340497],[-60.4730755,-14.1912667],[-60.4928646,-14.1895151],[-60.475237,-14.1598688],[-60.480557,-14.095806],[-60.4408718,-14.0783508],[-60.4054024,-14.0306357],[-60.4045779,-13.9981151],[-60.381455,-13.9890933],[-60.4155423,-13.9803727],[-60.4276045,-13.9625961],[-60.410064,-13.9498755],[-60.4188467,-13.9371921],[-60.4508967,-13.9364468],[-60.4510458,-13.8840487],[-60.4759777,-13.8862847],[-60.4574185,-13.853303],[-60.4927481,-13.8559863],[-60.469046,-13.8332345],[-60.4902325,-13.8226691],[-60.4668099,-13.8195387],[-60.4789964,-13.8055075],[-60.4672906,-13.7957305],[-60.5285102,-13.7918466],[-60.5229843,-13.7689058],[-60.5501535,-13.781679],[-60.574761,-13.7474353],[-60.6066774,-13.746283],[-60.6192927,-13.7209307],[-60.6563169,-13.7383423],[-60.6900421,-13.6993874],[-60.6971551,-13.7149645],[-60.7093149,-13.6930034],[-60.7695385,-13.6842053],[-60.7741496,-13.6612537],[-60.8798406,-13.6175279],[-60.9207565,-13.5689457],[-60.9230367,-13.5408564],[-61.0056227,-13.5502805],[-61.0090087,-13.5064043],[-60.9883349,-13.5003242],[-61.0149244,-13.4875362],[-61.0469844,-13.4846782],[-61.0355099,-13.5010245],[-61.0603729,-13.5118508],[-61.0946747,-13.4922157],[-61.1061794,-13.5316634],[-61.1259567,-13.5199015],[-61.1396194,-13.5289842],[-61.1384555,-13.5123572],[-61.1469543,-13.5319629],[-61.1840687,-13.5078965],[-61.1942882,-13.5364486],[-61.2335329,-13.5250233],[-61.2483441,-13.4962741],[-61.2803698,-13.5056295],[-61.2963111,-13.4778254],[-61.306231,-13.5030979],[-61.4699239,-13.5552502],[-61.5724304,-13.5185725],[-61.5767282,-13.4886226],[-61.6514522,-13.5187113],[-61.6958445,-13.5004424],[-61.730816,-13.5265442],[-61.7577939,-13.5241988],[-61.7573476,-13.5405747],[-61.7765942,-13.5177576],[-61.7837351,-13.5369218],[-61.817124,-13.5274366],[-61.811258,-13.5402315],[-61.8410941,-13.5489139],[-61.8403442,-13.5269667],[-61.8611503,-13.5354004],[-61.8832099,-13.4972993],[-61.8929873,-13.4309277],[-61.9706229,-13.4061749],[-61.971376,-13.3742487],[-62.0005457,-13.3709697],[-62.0136838,-13.3304605],[-62.0327119,-13.3336354],[-62.0569087,-13.3117753],[-62.0569578,-13.2882003],[-62.0842936,-13.2903075],[-62.1139871,-13.2609992],[-62.1162414,-13.1593951],[-62.1287112,-13.1483778],[-62.1500146,-13.1632243],[-62.1670425,-13.1163972],[-62.1814617,-13.1177612],[-62.1909339,-13.1538296],[-62.2147888,-13.1113449],[-62.2433994,-13.1173364],[-62.2459304,-13.1451627],[-62.276657,-13.1461816],[-62.2721847,-13.155853],[-62.3167712,-13.1344681],[-62.3214298,-13.1520742],[-62.392043,-13.1347504],[-62.3993784,-13.1133862],[-62.4139913,-13.1283821],[-62.436989,-13.0805693],[-62.4574579,-13.0866725],[-62.4540142,-13.0647915],[-62.4720453,-13.0788862],[-62.4789372,-13.0574487],[-62.5026304,-13.0831629],[-62.6091538,-13.0440466],[-62.6141327,-13.0262388],[-62.5999925,-13.0156607],[-62.6292359,-13.0162549],[-62.6314632,-12.9902156],[-62.6521839,-12.9893353],[-62.6508232,-12.9655806],[-62.6985773,-13.0028162],[-62.7251595,-13.0012549],[-62.7291585,-13.0207666],[-62.7469084,-12.9989103],[-62.7564091,-13.0171914],[-62.7790975,-13.0095735],[-62.8068696,-12.9681027],[-62.805964,-12.9406263],[-62.8229915,-12.9337693],[-62.8458474,-12.948718],[-62.8431264,-12.9271215],[-62.8702099,-12.9106179],[-62.8937115,-12.8574369],[-62.9213543,-12.8408615],[-62.9762632,-12.8598785],[-63.0092315,-12.8377824],[-63.0085174,-12.8107983],[-63.0472175,-12.7406865],[-63.0812581,-12.7240797],[-63.0609904,-12.6875382],[-63.0985225,-12.6816598],[-63.0841459,-12.6553139],[-63.0952541,-12.6325014],[-63.1467755,-12.6377353],[-63.1601582,-12.6132223],[-63.1659442,-12.6423287],[-63.1943439,-12.62316],[-63.1986281,-12.6575665],[-63.2471241,-12.6617182],[-63.2379814,-12.6900296],[-63.2993963,-12.6817592],[-63.3753644,-12.6580081],[-63.4121118,-12.6102631],[-63.4403348,-12.607613],[-63.4270404,-12.595997],[-63.4371548,-12.564373],[-63.5017385,-12.5673236],[-63.5504909,-12.508437],[-63.6221145,-12.4728773],[-63.7863035,-12.427945],[-63.8339707,-12.4634295],[-63.8873034,-12.4472509],[-63.9007129,-12.5060199],[-63.9529725,-12.5317711],[-63.9958824,-12.503238],[-64.0092995,-12.5179679],[-64.0401616,-12.5151395],[-64.0599966,-12.4909562],[-64.083827,-12.5007213],[-64.0921924,-12.4839763],[-64.1225809,-12.5057503],[-64.1338805,-12.4764538],[-64.1646071,-12.5143681],[-64.1728845,-12.4665134],[-64.1967732,-12.4728443],[-64.2305488,-12.4550751],[-64.2867242,-12.5029531],[-64.294721,-12.4578168],[-64.4061676,-12.4470481],[-64.5077164,-12.3581401],[-64.4928593,-12.2942597],[-64.5081936,-12.2252885],[-64.5522433,-12.2419466],[-64.5758153,-12.2153134],[-64.6162191,-12.2147173],[-64.7100574,-12.1767124],[-64.7177993,-12.1424671],[-64.7008936,-12.092016],[-64.7385545,-12.1000836],[-64.7370275,-12.1402376],[-64.7565254,-12.1578018],[-64.7691092,-12.1436848],[-64.7657528,-12.096308],[-64.8009971,-12.0860856],[-64.826199,-12.1219711],[-64.8422567,-12.1074872],[-64.8094705,-12.0590928],[-64.8395868,-12.0106793],[-64.9170257,-12.0283831],[-64.9483889,-11.9934266],[-64.975138,-12.01873],[-65.0005559,-11.9933727],[-65.0305267,-11.9966049],[-65.0257514,-11.9707448],[-65.0420298,-11.961672],[-65.015248,-11.8982394],[-65.0706948,-11.8691097],[-65.0597243,-11.7906782],[-65.0853031,-11.7122566],[-65.1829733,-11.7217035],[-65.1734988,-11.750973],[-65.1853059,-11.756582],[-65.2594749,-11.7100808],[-65.2179133,-11.6520886],[-65.234947,-11.5744733],[-65.2119168,-11.5304891],[-65.3073011,-11.4972087],[-65.3354111,-11.3549453],[-65.2918082,-11.3241624],[-65.3414431,-11.3109182],[-65.3613319,-11.251356],[-65.3569401,-11.2168322],[-65.318666,-11.197153],[-65.3508619,-11.1863923],[-65.3627743,-11.1378014],[-65.3315022,-11.1067738],[-65.2843571,-11.0895812],[-65.2808572,-11.0635832],[-65.3012506,-11.0321288],[-65.2503923,-10.9878936],[-65.2858299,-10.9276718],[-65.2666125,-10.9218079],[-65.2765513,-10.8693553],[-65.3669649,-10.7962563],[-65.3447432,-10.7695869],[-65.3496676,-10.6705476],[-65.403468,-10.6429834],[-65.416748,-10.6186868],[-65.3971968,-10.5833445],[-65.429134,-10.4770111],[-65.3904341,-10.447599],[-65.3790817,-10.4089966],[-65.3918013,-10.3744374],[-65.321956,-10.2976219],[-65.2888291,-10.2198708],[-65.3070251,-10.1649978],[-65.3005774,-10.1009084],[-65.329524,-10.0538325],[-65.3200511,-10.0009559],[-65.3335453,-9.9425119],[-65.2867394,-9.8417664],[-65.3205208,-9.814532],[-65.3546006,-9.7236823],[-65.3949379,-9.6857732],[-65.4460779,-9.6690549],[-65.4505478,-9.7004627],[-65.4865803,-9.707858],[-65.4823818,-9.7267348],[-65.500522,-9.7289142],[-65.5042742,-9.7487262],[-65.4991068,-9.7813593],[-65.5135248,-9.79317],[-65.5316045,-9.7812031],[-65.5393026,-9.8019647],[-65.5643246,-9.8102544],[-65.5580287,-9.8446349],[-65.5969534,-9.8419106],[-65.601108,-9.8241689],[-65.6276053,-9.8368031],[-65.6339634,-9.8068984],[-65.6492976,-9.816225],[-65.6441828,-9.7941391],[-65.6688875,-9.7811425],[-65.6896882,-9.8127067],[-65.7105471,-9.8073199],[-65.7081066,-9.7660517],[-65.6814678,-9.7673211],[-65.6849694,-9.7490081],[-65.7290835,-9.7596608],[-65.7442444,-9.782083],[-65.7726588,-9.7581878],[-65.7719105,-9.7342956],[-65.7945257,-9.7917918],[-65.81313,-9.7724132],[-65.7998827,-9.7566712],[-65.8191347,-9.7554592],[-65.8606617,-9.7951371],[-65.8713618,-9.7533886],[-65.9039948,-9.7668392],[-65.921635,-9.7527863],[-65.9724163,-9.7754827],[-65.9647799,-9.8042888],[-65.999745,-9.7944075],[-66.0241664,-9.812248],[-66.0348553,-9.787523],[-66.0711099,-9.7842972],[-66.0924555,-9.8141356],[-66.1001944,-9.7847288],[-66.1529391,-9.785746],[-66.1950561,-9.8063093],[-66.1858267,-9.8223539],[-66.2036697,-9.8346224],[-66.2376611,-9.8145963],[-66.2550757,-9.8333063],[-66.2797188,-9.8287085],[-66.2861949,-9.8447169],[-66.3158077,-9.8314157],[-66.346193,-9.8393743],[-66.3596118,-9.8661512],[-66.4041419,-9.8642247],[-66.4262463,-9.8996285],[-66.4358032,-9.8660127],[-66.4563039,-9.8798815],[-66.4810335,-9.8684453],[-66.4948058,-9.884358],[-66.5618606,-9.8808921],[-66.5823334,-9.9058688],[-66.6199101,-9.8940464],[-66.6370053,-9.9498531],[-66.663071,-9.9369526],[-66.6756318,-9.9676363],[-66.7636793,-9.9993064],[-66.7712431,-10.020971],[-66.8360667,-10.0622728],[-66.8379818,-10.0832994],[-66.8744921,-10.0812871],[-66.8731617,-10.1014199],[-66.9186681,-10.1301276],[-66.9112276,-10.1474112],[-66.9458066,-10.1583363],[-66.9535368,-10.189003],[-66.9969282,-10.1992061],[-67.0009918,-10.2178665],[-66.9887823,-10.2214274],[-67.0157815,-10.2587312],[-67.0791594,-10.2893882],[-67.1257869,-10.2904042],[-67.1408046,-10.3073175],[-67.1280835,-10.3159342],[-67.1777902,-10.3394006],[-67.2251298,-10.3152453],[-67.266238,-10.3338028],[-67.3159589,-10.3187353],[-67.3280395,-10.3352829],[-67.3108218,-10.3773864],[-67.3444321,-10.3759229],[-67.3528761,-10.3933169],[-67.3638115,-10.3775875],[-67.4068489,-10.3726274],[-67.423791,-10.3913996],[-67.4132151,-10.4257261],[-67.4364833,-10.4479069],[-67.5945219,-10.5215719],[-67.6409033,-10.5993909],[-67.6592208,-10.6147484],[-67.6756111,-10.6051611],[-67.7084568,-10.7110546],[-67.735897,-10.7132008],[-67.7580348,-10.686337],[-67.864445,-10.6406729],[-67.9613376,-10.6498039],[-67.976896,-10.6633009],[-68.0020498,-10.6484439],[-68.0331232,-10.6557904],[-68.1053806,-10.7152056],[-68.1040261,-10.7767632],[-68.1961278,-10.8585922],[-68.2381509,-10.9568302],[-68.3310409,-11.0125956],[-68.3521846,-11.0043627],[-68.3846844,-11.0181411],[-68.398129,-11.0520694],[-68.432527,-11.031757],[-68.4871861,-11.0508753],[-68.5429714,-11.1113555],[-68.7161196,-11.1455615],[-68.7209385,-11.1033739],[-68.7662026,-11.0657851],[-68.7486672,-11.0202574],[-68.7500603,-11.0080972],[-68.763761,-11.0169014],[-68.7581283,-10.9995561],[-68.7817103,-10.9987241],[-68.7882442,-11.014753],[-68.7924204,-10.9900958],[-68.8274125,-11.0066913],[-68.8465983,-10.991752],[-68.8598913,-11.0163695],[-68.8831676,-11.0083947],[-68.8800186,-11.0213744],[-68.895849,-11.0060778],[-68.9104537,-11.02213],[-68.933349,-11.0048088],[-68.9475433,-11.0122387],[-68.9670107,-10.9874575],[-69.0018848,-11.0089345],[-69.0386311,-10.9767409],[-69.0613547,-10.9857171],[-69.0716544,-10.9668164],[-69.120932,-10.9810881],[-69.1224716,-10.9664346],[-69.1512651,-10.9709953],[-69.152059,-10.9545664],[-69.1628013,-10.9658342],[-69.1864288,-10.9478039],[-69.2156113,-10.9583531],[-69.2522717,-10.939024],[-69.2746467,-10.954914],[-69.3253995,-10.9356479],[-69.342233,-10.9522754],[-69.3464333,-10.937602],[-69.3703962,-10.9385184],[-69.3746126,-10.956415],[-69.3869722,-10.933894],[-69.39349,-10.9456814],[-69.4168789,-10.925356],[-69.4781218,-10.9549587],[-69.501634,-10.935935],[-69.5402954,-10.9376257],[-69.54743,-10.953542],[-69.59521097699997,-10.940787559999935],[-69.60952767599997,-10.960075058999967],[-69.6589938,-10.9529785],[-69.7158996,-10.976804],[-69.7231308,-10.9647177],[-69.7398142,-10.9747239],[-69.7696725,-10.9294723],[-69.8513351,-10.9237208],[-69.8586682,-10.9344175],[-69.9011172,-10.9200249],[-69.9216199,-10.9331557],[-69.9339039,-10.9211345],[-70.0656409,-10.9941717],[-70.0923488,-10.9853819],[-70.1586406,-11.0423232],[-70.1993696,-11.0547026],[-70.2421498,-11.0470869],[-70.3085214,-11.0706742],[-70.3740766,-11.0606776],[-70.4381023,-11.0387692],[-70.4528315,-10.996725],[-70.5267128,-10.9351447],[-70.6176133,-10.9990417],[-70.6006535,-9.5559542],[-70.5896857,-9.5486402],[-70.5868984,-9.5677879],[-70.553229,-9.570673],[-70.5703909,-9.5552065],[-70.5679505,-9.5315097],[-70.541586,-9.5382673],[-70.5455229,-9.5141622],[-70.5148635,-9.5012417],[-70.5216093,-9.4571979],[-70.5046199,-9.4644077],[-70.5119011,-9.447918],[-70.4945548,-9.423983],[-70.595808,-9.4412551],[-70.5961864,-9.4596078],[-70.6118872,-9.457295],[-70.6625176,-9.5264125],[-70.7143832,-9.5467442],[-70.7298556,-9.5703841],[-70.7504082,-9.560438],[-70.7563593,-9.6042653],[-70.7863595,-9.6142543],[-70.7932038,-9.6386105],[-70.8360817,-9.6429185],[-70.9227282,-9.7402554],[-70.9632713,-9.7479696],[-70.9940496,-9.8172946],[-71.1157174,-9.8274416],[-71.2241105,-9.9655958],[-71.2536945,-9.9630704],[-71.3030575,-9.9889497],[-71.3412892,-9.9643068],[-71.377413,-10.0],[-72.1804528,-10.0],[-72.1552492,-9.971403],[-72.1683528,-9.9271],[-72.1416358,-9.8865914],[-72.1587485,-9.8354053],[-72.1539417,-9.7920209],[-72.2575449,-9.7519965],[-72.24296,-9.6644122],[-72.2604055,-9.6447256],[-72.253467,-9.616786],[-72.2888526,-9.6023068],[-72.2837106,-9.5398567],[-72.3186948,-9.5436486],[-72.3544438,-9.4952218],[-72.407225,-9.4766691],[-72.5184481,-9.4915955],[-72.5757771,-9.4556658],[-72.6955741,-9.4391216],[-72.7165137,-9.4122696],[-73.2124686,-9.412046],[-73.1907019,-9.3970076],[-73.188893,-9.3628152],[-73.1552596,-9.3569086],[-73.1314052,-9.318443],[-73.1020238,-9.3087039],[-73.1102442,-9.2808014],[-73.0756349,-9.2371621],[-73.0104972,-9.2222547],[-72.9989144,-9.1923245],[-73.0258701,-9.1778756],[-72.9516052,-9.13743],[-72.9393768,-9.07227],[-72.9573882,-9.011099],[-72.9399843,-8.9846717],[-72.9697132,-8.9807084],[-72.9990547,-8.9155998],[-73.0597007,-8.905997],[-73.0765949,-8.8428936],[-73.1132862,-8.819099],[-73.1540173,-8.7054653],[-73.2182302,-8.6779138],[-73.2532559,-8.6916195],[-73.2877676,-8.6671396],[-73.2977423,-8.6370632],[-73.342228,-8.6185196],[-73.3323797,-8.4727484],[-73.3923575,-8.4729053],[-73.4040196,-8.4196482],[-73.4807924,-8.3948804],[-73.5388322,-8.3416376],[-73.5297419,-8.2766878],[-73.595571,-8.2069508],[-73.5878942,-8.1118939],[-73.6339737,-8.0571364],[-73.615369,-8.0332967],[-73.6390605,-8.0059508],[-73.6786659,-8.0075007],[-73.6936144,-7.9641517],[-73.7300916,-7.9689939],[-73.7784454,-7.8909684],[-73.7676562,-7.8590888],[-73.7523657,-7.8527214],[-73.7511237,-7.871738],[-73.7088942,-7.8751216],[-73.6801027,-7.8454028],[-73.6890458,-7.7661213],[-73.7420245,-7.7333443],[-73.8261933,-7.7131159],[-73.8333897,-7.6824737],[-73.8738978,-7.671014],[-73.8777291,-7.6316284],[-73.915277,-7.6233836],[-73.9573579,-7.5666002],[-73.9790764,-7.5710915],[-73.9868097,-7.5529778],[-73.983958,-7.5313713],[-73.9385865,-7.5338126],[-73.9230486,-7.4958626],[-73.9315195,-7.4805032],[-73.9087718,-7.4726034],[-73.9564798,-7.3542511],[-73.9196583,-7.3547371],[-73.8905337,-7.3860032],[-73.8626583,-7.3852537],[-73.8494523,-7.3489907],[-73.7619745,-7.3363662],[-73.754033,-7.3536173],[-73.6962419,-7.3107573],[-73.717538,-7.2732808],[-73.7184303,-7.2275654],[-73.7436229,-7.2212598],[-73.7554607,-7.1761095],[-73.8023119,-7.1141088],[-73.757972,-7.0602725],[-73.7616266,-6.9782883],[-73.7446372,-6.962108],[-73.7623567,-6.9375292],[-73.7219551,-6.8846117],[-73.7108773,-6.8401129],[-73.6664821,-6.8060823],[-73.638391,-6.7536548],[-73.5622299,-6.7229895],[-73.5375899,-6.6844359],[-73.3902346,-6.6416025],[-73.3528944,-6.5930667],[-73.2276503,-6.5881221],[-73.2296639,-6.5708651],[-73.2067318,-6.5764072],[-73.1999636,-6.5456391],[-73.1817467,-6.5452579],[-73.1882423,-6.5222624],[-73.1524581,-6.5271239],[-73.135572,-6.5109963],[-73.1432935,-6.4911238],[-73.1116334,-6.4539912],[-73.1213932,-6.4312219],[-73.1041326,-6.4102486],[-73.1362371,-6.3800299],[-73.160854,-6.2768914],[-73.2207886,-6.2196429],[-73.2174175,-6.1829098],[-73.2456809,-6.1532983],[-73.2485223,-6.1079093],[-73.2318304,-6.0908889],[-73.2403257,-6.076843],[-73.2282067,-6.0767737],[-73.2379241,-6.0361986],[-73.1872907,-6.0050924],[-73.1946272,-5.989985],[-73.1769611,-5.9708762],[-73.1871999,-5.9445214],[-73.1526608,-5.8686289],[-73.1172571,-5.8642076],[-73.1147187,-5.8334033],[-73.0893993,-5.8304592],[-73.0798972,-5.8002865],[-73.0546023,-5.7965776],[-73.0469529,-5.7590967],[-73.0179971,-5.7393877],[-73.0267376,-5.732794],[-72.9994193,-5.7278335],[-73.0036124,-5.7077935],[-72.9803295,-5.6777836],[-72.9895996,-5.6668219],[-72.9588759,-5.6562932],[-72.9740725,-5.6130198],[-72.9383628,-5.5412471],[-72.9530876,-5.5448751],[-72.960635,-5.5223339],[-72.9491418,-5.4801807],[-72.9588278,-5.4659249],[-72.920776,-5.3765581],[-72.8899481,-5.3512754],[-72.9044739,-5.3339459],[-72.8607629,-5.2702087],[-72.8721913,-5.2632662],[-72.8623059,-5.246782],[-72.8738008,-5.2494383],[-72.8694282,-5.1783809],[-72.8881869,-5.1644317],[-72.851339,-5.1360634],[-72.8503624,-5.1465761],[-72.815976,-5.1394845],[-72.8190547,-5.1029216],[-72.7866654,-5.1137359],[-72.7846894,-5.0931221],[-72.7693092,-5.0999577],[-72.7566213,-5.0766292],[-72.7404578,-5.0888765],[-72.7283137,-5.05147],[-72.6925239,-5.0609791],[-72.6702666,-5.0471933],[-72.6575791,-5.0634328],[-72.6423092,-5.0446426],[-72.6424087,-5.0626019],[-72.6297342,-5.0376446],[-72.6214388,-5.0508531],[-72.5988731,-4.9837212],[-72.5852022,-4.9983807],[-72.5520311,-4.9556555],[-72.5217799,-4.9598182],[-72.5210808,-4.9328082],[-72.4969943,-4.9502694],[-72.487366,-4.9337933],[-72.4810107,-4.951461],[-72.4730348,-4.9242604],[-72.4506801,-4.9151246],[-72.4703179,-4.891483],[-72.4343152,-4.9111049],[-72.4145502,-4.9004757],[-72.4230981,-4.8768499],[-72.4051444,-4.8892268],[-72.3823289,-4.8735451],[-72.3752904,-4.8379237],[-72.3897964,-4.8338881],[-72.3589255,-4.8240692],[-72.3705557,-4.8046855],[-72.3447691,-4.8066239],[-72.338382,-4.7929283],[-72.323463,-4.8128362],[-72.3259718,-4.778909],[-72.310128,-4.7746935],[-72.3065377,-4.7904301],[-72.2785477,-4.770228],[-72.2843351,-4.7959138],[-72.2717244,-4.7982358],[-72.2544874,-4.7909659],[-72.256738,-4.7652087],[-72.2438416,-4.780981],[-72.2079744,-4.7469357],[-72.1932381,-4.7622614],[-72.1921842,-4.7452388],[-72.1587998,-4.7353432],[-72.1405012,-4.7106778],[-72.124174,-4.7328827],[-72.1251587,-4.7155407],[-72.0776643,-4.6810779],[-72.0812111,-4.6688502],[-72.060443,-4.6741753],[-72.0690045,-4.6595049],[-72.0379958,-4.6432682],[-72.0428642,-4.6232611],[-72.0062369,-4.6458761],[-72.0023787,-4.6290678],[-71.9819563,-4.6268698],[-71.99405,-4.6089532],[-71.9474667,-4.6087195],[-71.9508942,-4.5811823],[-71.9200464,-4.5644731],[-71.9193843,-4.5295161],[-71.8853231,-4.5370333],[-71.9064531,-4.5153775],[-71.8660627,-4.5273544],[-71.8398693,-4.5053286],[-71.8300152,-4.5145207],[-71.8327027,-4.4967014],[-71.8077751,-4.5052897],[-71.794474,-4.4848024],[-71.7845419,-4.4974998],[-71.7857688,-4.4835365],[-71.7689622,-4.5045302],[-71.7509092,-4.4942281],[-71.7511818,-4.4683463],[-71.7384454,-4.4965261],[-71.707656,-4.5108399],[-71.6598263,-4.5023101],[-71.6545682,-4.4722023],[-71.6504785,-4.5037512],[-71.6170211,-4.4678205],[-71.6344119,-4.5125342],[-71.6029799,-4.5294187],[-71.5682176,-4.5070424],[-71.5590061,-4.4783173],[-71.536474,-4.4821149],[-71.537253,-4.4637698],[-71.5175057,-4.4627571],[-71.4946425,-4.486224],[-71.5069699,-4.4383359],[-71.4832303,-4.4576352],[-71.4785564,-4.4345968],[-71.4516035,-4.4324935],[-71.4380102,-4.4498454],[-71.4333363,-4.4285012],[-71.4117584,-4.4375179],[-71.4326385,-4.4497401],[-71.4240996,-4.4692227],[-71.388968,-4.4263539],[-71.3460992,-4.4266676],[-71.3082144,-4.4626007],[-71.3023591,-4.4446864],[-71.3210053,-4.4196274],[-71.2756968,-4.439354],[-71.2620694,-4.425378],[-71.2621391,-4.3953699],[-71.2807504,-4.3990294],[-71.2701552,-4.3849489],[-71.2296564,-4.3852626],[-71.2231389,-4.4077077],[-71.2171791,-4.3804529],[-71.202297,-4.3791982],[-71.1945249,-4.424437],[-71.1853238,-4.3957881],[-71.1602995,-4.3923725],[-71.1521789,-4.405268],[-71.1471949,-4.3814637],[-71.1159321,-4.4097292],[-71.0969373,-4.3749113],[-71.0786048,-4.3753993],[-71.0798247,-4.3966246],[-71.0512106,-4.3688121],[-71.0417655,-4.4009812],[-71.0179612,-4.3830669],[-70.9970844,-4.3872841],[-70.9944066,-4.3449219],[-70.9700806,-4.3784382],[-70.9366881,-4.3837146],[-70.9327509,-4.3562657],[-70.9147327,-4.3605312],[-70.9007349,-4.3266767],[-70.8762939,-4.3222641],[-70.8774216,-4.2924544],[-70.8456017,-4.2787753],[-70.8635218,-4.2500443],[-70.8341044,-4.2544079],[-70.8160617,-4.2279812],[-70.8445884,-4.2311912],[-70.845063,-4.218465],[-70.7614677,-4.1591355],[-70.7225969,-4.18702],[-70.6911813,-4.1877801],[-70.6820474,-4.2070813],[-70.6693655,-4.1432768],[-70.6506583,-4.162747],[-70.6472904,-4.1290688],[-70.6199532,-4.1272533],[-70.633556,-4.1803228],[-70.616217,-4.1933995],[-70.5659365,-4.1731136],[-70.5724353,-4.2113963],[-70.5554646,-4.2029767],[-70.5581619,-4.1676248],[-70.5408084,-4.1555684],[-70.55085,-4.137045],[-70.5081164,-4.1510838],[-70.5052242,-4.2001543],[-70.4852385,-4.1611254],[-70.4647328,-4.176139],[-70.4530339,-4.1585256],[-70.4338606,-4.1623278],[-70.4345106,-4.131813],[-70.3781282,-4.1345753],[-70.3391317,-4.1791937],[-70.3222982,-4.1424071],[-70.2868439,-4.1681447],[-70.2785897,-4.2281343],[-70.3072846,-4.2588115],[-70.2846666,-4.2717454],[-70.2870714,-4.2878964],[-70.2480099,-4.2729802],[-70.2684181,-4.2950133],[-70.258084,-4.309312],[-70.2244964,-4.3166831],[-70.2135744,-4.2982461],[-70.1981469,-4.3602696],[-70.1521941,-4.328841],[-70.171673,-4.3047474],[-70.157926,-4.2757961],[-70.1211055,-4.2859485],[-70.1116818,-4.2558315],[-70.0958461,-4.2887173],[-70.040081,-4.2940121],[-70.0797189,-4.3124223],[-70.0420726,-4.3327756],[-70.04194522076114,-4.374938787056972],[-70.01103154004159,-4.330784093334046],[-69.98705461956814,-4.321796701677102],[-69.98100011599985,-4.3442882269999386],[-69.94366168550141,-4.3101738910481835],[-69.94825634665222,-4.225779552206628],[-69.9332226,-4.2197172],[-69.4517125,-1.5389494],[-69.4570142,-1.4915895],[-69.4338433,-1.4575441],[-69.4342189,-1.3982437],[-69.3971222,-1.3602967],[-69.4309174,-1.2269403],[-69.3951241,-1.1239909],[-69.4331533,-1.0709363],[-69.419808,-1.0694646],[-69.4305939,-1.0610043],[-69.4185732,-1.0439762],[-69.4332913,-1.0410989],[-69.4449799,-1.0239463],[-69.4188278,-0.9979432],[-69.4590547,-0.993619],[-69.4708879,-0.9577093],[-69.5280956,-0.9248067],[-69.5257548,-0.8680013],[-69.5730707,-0.83847],[-69.5642451,-0.8066607],[-69.5836208,-0.7996674],[-69.586348,-0.7813128],[-69.601106,-0.7841043],[-69.6067125,-0.7540947],[-69.6253532,-0.7457885],[-69.5622153,-0.6361241],[-69.6032625,-0.5952671],[-69.5914679,-0.5605716],[-69.6141112,-0.5339942],[-69.6082854,-0.5003706],[-69.7266655,-0.4453678],[-69.7740221,-0.3909118],[-69.8287982,-0.3754193],[-69.844795,-0.3370827],[-69.8897845,-0.341852],[-69.9208415,-0.3256261],[-70.0001545,-0.2218816],[-70.0537567,-0.1893037],[-70.0647188,-0.1649351],[-70.0462727,-0.1226702],[-70.046467,0.562937],[-70.0054123,0.5444686],[-69.9917027,0.5629018],[-70.0005186,0.573532],[-69.9784226,0.5779904],[-69.9361206,0.5528594],[-69.9162592,0.5901312],[-69.8865723,0.5770051],[-69.8232406,0.59127],[-69.803044,0.5717963],[-69.7487814,0.619638],[-69.7237186,0.6151694],[-69.7158699,0.6408783],[-69.6715909,0.66774],[-69.649105,0.6635807],[-69.6071265,0.6130648],[-69.6057036,0.634932],[-69.5869589,0.6405982],[-69.5971946,0.6542675],[-69.5629011,0.6836761],[-69.5354506,0.6794999],[-69.5320511,0.7029819],[-69.4800409,0.7357727],[-69.4333619,0.7124843],[-69.4359102,0.6994451],[-69.3538429,0.614662],[-69.3359079,0.6430891],[-69.3192452,0.6264643],[-69.2943013,0.6498085],[-69.2843684,0.6215723],[-69.2952872,0.6043106],[-69.2716454,0.6014461],[-69.1995999,0.6065596],[-69.1940005,0.6508364],[-69.1588452,0.6534231],[-69.1249815,0.6339648],[-69.115672,0.6439536],[-69.1906025,0.739971],[-69.1475962,0.7684338],[-69.1671532089675,0.843701906329584],[-69.1412633,0.8501521],[-69.1384464,0.8827555],[-69.156606,0.8824159],[-69.1912374,0.9166411],[-69.1898213,0.9325721],[-69.1644497,0.9402035],[-69.2181894,0.9731266],[-69.1982918,1.0010153],[-69.2441703,1.0559807],[-69.2875324,1.0530883],[-69.3213943,1.0884141],[-69.3580312,1.0789066],[-69.3753518,1.0894548],[-69.4134154,1.0389909],[-69.4332035,1.0461278],[-69.4401073,1.0745424],[-69.5656082,1.0724938],[-69.6075825,1.0983676],[-69.6841252,1.0717447],[-69.7046522,1.0756103],[-69.7050717,1.1188817],[-69.7712175,1.105114],[-69.8085613,1.0635698],[-69.84657,1.076521],[-69.8457467,1.7136982],[-69.7826187,1.6925604],[-69.7211162,1.7350265],[-69.6544275,1.7178658],[-69.5346758,1.7768256],[-69.5342546,1.7635446],[-69.5134534,1.7713505],[-69.4764801,1.7433858],[-69.4664585,1.7568426],[-69.393255,1.726748],[-68.163292,1.727788],[-68.1710966,1.7436934],[-68.1930123,1.7373327],[-68.177819,1.7657097],[-68.1922888,1.7801292],[-68.2394585,1.7706864],[-68.226776,1.8291498],[-68.2747459,1.8192631],[-68.285049,1.8295186],[-68.2047475,1.9836695],[-68.1994978,2.0390754],[-68.1845584,1.9767012],[-68.1685024,1.9632102],[-68.1398806,1.9704802],[-68.0967867,1.8995463],[-68.064053,1.8936999],[-68.0360744,1.8151011],[-67.9997235,1.8388222],[-67.9850676,1.8182831],[-67.907677,1.8056231],[-67.9222147,1.892394],[-67.8708116,1.9016314],[-67.8694691,1.9204996],[-67.7843861,1.9993091],[-67.7753171,2.0352891],[-67.7429004,2.0341482],[-67.7255574,2.0093372],[-67.6762917,2.0082479],[-67.6563647,1.9918468],[-67.6219666,2.0273125],[-67.6264075,2.0392543],[-67.6002665,2.0435056],[-67.5963357,2.07554],[-67.5499643,2.1468369],[-67.4892794,2.177991],[-67.4547359,2.1679123],[-67.445788,2.2170972],[-67.3978746,2.235334],[-67.3719374,2.2184658],[-67.3738069,2.1909763],[-67.3610452,2.1877475],[-67.3730107,2.1464699],[-67.3434652,2.1310657],[-67.3607056,2.1161551],[-67.3439916,2.0362057],[-67.3523598,1.9996683],[-67.3119942,1.925507],[-67.3202429,1.9120908],[-67.2646084,1.855575],[-67.2393942,1.8654536],[-67.1747369,1.8443496],[-67.1261535,1.776428],[-67.1397837,1.7603011],[-67.1426924,1.7039471],[-67.1297523,1.6870025],[-67.1443344,1.6037183],[-67.1030007,1.5801652],[-67.1012317,1.5093414],[-67.0772278,1.4693418],[-67.0779812,1.3653735],[-67.1104816,1.336028],[-67.1325726,1.3516723],[-67.1507711,1.3454196],[-67.1559511,1.3192515],[-67.0982366,1.2548301],[-67.0806674,1.1983457],[-67.0905825,1.1655978],[-66.8568869,1.2279544],[-66.3105714,0.7450103],[-66.1963357,0.7818986],[-66.1459756,0.7475021],[-66.0778065,0.7612174],[-66.0661165,0.8068777],[-65.96701,0.8138677],[-65.940863,0.8910452],[-65.8900199,0.9029604],[-65.8933718,0.9343601],[-65.7722953,0.958476],[-65.7427703,1.001009],[-65.696438,1.0029988],[-65.6862992,0.9841768],[-65.6586024,1.0116577],[-65.628503,0.9883736],[-65.6281217,1.0141586],[-65.5890571,1.0044674],[-65.5858221,0.9814042],[-65.5698563,0.9957622],[-65.5643558,0.9707085],[-65.5430933,0.9705054],[-65.4964549,0.87499],[-65.5043963,0.8354196],[-65.5748889,0.76325],[-65.5913674,0.721611],[-65.5428022,0.6465878],[-65.5295944,0.668646],[-65.4259479,0.7039071],[-65.4178173,0.7527122],[-65.3908556,0.7590225],[-65.41192,0.8239199],[-65.3965804,0.8216297],[-65.3960355,0.8402656],[-65.3561213,0.8649413],[-65.3327312,0.9232952],[-65.2712756,0.9403808],[-65.268789,0.9222969],[-65.2205367,0.9296566],[-65.2137322,0.9025765],[-65.1976938,0.9134287],[-65.1492609,1.0024828],[-65.1752936,1.0157594],[-65.156359,1.050446],[-65.1604315,1.1221042],[-65.1312467,1.1212],[-65.1060447,1.155832],[-65.0621402,1.1429042],[-65.0625806,1.1110841],[-65.0127203,1.109107],[-64.9559537,1.2159772],[-64.9279338,1.2109427],[-64.9039537,1.2513471],[-64.8724617,1.2230168],[-64.8434354,1.2789558],[-64.801334,1.3140744],[-64.7841323,1.2920156],[-64.7858628,1.263205],[-64.7435254,1.2262796],[-64.7006451,1.2801424],[-64.6502297,1.2974916],[-64.6073841,1.3387],[-64.5772011,1.3405647],[-64.5786062,1.3772342],[-64.5575856,1.4133445],[-64.4664518,1.4748919],[-64.4326825,1.4722578],[-64.3909004,1.5296278],[-64.3469709,1.5177076],[-64.3478893,1.4948838],[-64.4098638,1.4030014],[-64.3377659,1.3612277],[-64.3233249,1.4380396],[-64.3015481,1.4641447],[-64.26499,1.482156],[-64.2605946,1.5022694],[-64.1973077,1.5199725],[-64.1682656,1.5795835],[-64.1254432,1.5784454],[-64.0749707,1.6507314],[-64.0612153,1.7013884],[-64.0801772,1.7558585],[-64.04992,1.8184793],[-64.0694316,1.8524173],[-64.0611066,1.9244839],[-63.9924513,1.9823764],[-63.9031652,1.9934097],[-63.8410019,1.9611368],[-63.8242634,1.9941572],[-63.7902258,1.9807976],[-63.7639933,2.0055184],[-63.7493613,1.9951556],[-63.7003745,2.0489085],[-63.6908612,2.0207594],[-63.6642635,2.0190849],[-63.6618491,2.067393],[-63.6327202,2.0719882],[-63.6148392,2.1088916],[-63.5479097,2.1345041],[-63.5072982,2.1105794],[-63.4752053,2.1237751],[-63.4733207,2.1416068],[-63.4354445,2.1241606],[-63.3929378,2.1485072],[-63.3999762,2.201988],[-63.3716226,2.2115677],[-63.3822017,2.2276576],[-63.3604392,2.2691503],[-63.3607996,2.3261747],[-63.376529,2.3558894],[-63.3552281,2.3856565],[-63.3727243,2.4259845],[-63.4008138,2.4295061],[-63.4138413,2.45292],[-63.4642116,2.4013496],[-63.4804728,2.4336579],[-63.5550525,2.4214869],[-63.5553442,2.4470853],[-63.5673363,2.4355886],[-63.5925586,2.4562732],[-63.6338212,2.439755],[-63.6823977,2.4421856],[-63.7015524,2.4589964],[-63.7190018,2.4437203],[-63.7326383,2.453721],[-63.7675569,2.4416928],[-63.8454607,2.4955801],[-63.8923313,2.4657714],[-63.9266145,2.4716915],[-63.9358944,2.4565581],[-64.0085309,2.4809383],[-64.0189059,2.4639222],[-64.0603423,2.5004402],[-64.0450582,2.5777671],[-64.027928,2.5774215],[-63.9865347,2.6481776],[-63.9868083,2.6873198],[-64.0083193,2.7059971],[-63.9872793,2.7160971],[-64.0039652,2.7381669],[-63.9976424,2.7685695],[-64.0173391,2.7768332],[-64.020647,2.8198319],[-64.0802374,2.8758492],[-64.0669086,2.8914014],[-64.07129,2.9241897],[-64.1080647,2.9542159],[-64.1074398,2.9791408],[-64.1610492,2.9848915],[-64.1482051,3.0380294],[-64.2189372,3.0907124],[-64.2302866,3.1378818],[-64.1814312,3.1651274],[-64.1563681,3.2135731],[-64.1584061,3.2448524],[-64.1172565,3.278419],[-64.1149311,3.3347012],[-64.1478336,3.371814],[-64.1214674,3.4032823],[-64.11803907899991,3.469045008000083],[-64.1925525,3.5234533],[-64.1716271,3.5560977],[-64.2260966,3.63109],[-64.2486134,3.6201257],[-64.2338154,3.6452327],[-64.2442464,3.6605913],[-64.2936853,3.6536156],[-64.3182808,3.7134955],[-64.3343455,3.7075244],[-64.4137658,3.777845],[-64.4569775,3.7821704],[-64.4742167,3.8304833],[-64.50201734399991,3.8254943040001796],[-64.5659142,3.89999],[-64.5508236,3.9253777],[-64.5883992,3.939341],[-64.5951521,3.9617412],[-64.640405,3.977414],[-64.6464338,3.995085],[-64.6713207,3.9906632],[-64.6803179,4.0126314],[-64.700881,4.0069171],[-64.7056228,4.0269041],[-64.7344963,4.0227238],[-64.7726849,4.0536406],[-64.7620909,4.0614066],[-64.7773935,4.1412675],[-64.7968304,4.1526269],[-64.7928269,4.1831765],[-64.8043471,4.200205],[-64.8216041,4.1948552],[-64.8269138,4.2199305],[-64.7905402,4.2911567],[-64.7328637,4.2768957],[-64.7069607,4.2090191],[-64.6385122,4.1586658],[-64.6298477,4.1152071],[-64.5637799,4.1007345],[-64.5198173,4.118625],[-64.5017942,4.1056745],[-64.4740393,4.1398473],[-64.4389781,4.1153644],[-64.4212618,4.1438331],[-64.3793983,4.1335818],[-64.3394277,4.1464549],[-64.3091627,4.1226813],[-64.2951077,4.1611702],[-64.2624256,4.1492998],[-64.2747595,4.1359772],[-64.2482728,4.1186649],[-64.2198449,4.1218827],[-64.1768127,4.0941904],[-64.1359043,4.1070929],[-64.0533463,3.9759422],[-64.0189964,3.9715379],[-63.9963108,3.9039599],[-63.9763269,3.89818],[-63.9662432,3.8695483],[-63.9178321,3.9335593],[-63.8815884,3.9289974],[-63.8607973,3.9474197],[-63.8004993,3.9338517],[-63.7612189,3.9427502],[-63.736352,3.9142004],[-63.6659931,3.9099355],[-63.6377643,3.9565058],[-63.6410798,3.9812209],[-63.5861188,3.9173708],[-63.5958206,3.904748],[-63.4986371,3.8402671],[-63.5046012,3.8648116],[-63.4843122,3.8846861],[-63.4512395,3.8587289],[-63.4151343,3.901569],[-63.4179487,3.9346967],[-63.4511385,3.9556916],[-63.425671,3.9767943],[-63.3923152,3.979122],[-63.3338645,3.9526937],[-63.3037552,3.9211452],[-63.2178806,3.917325],[-63.2338648,3.8790176],[-63.2274225,3.8329163],[-63.2035869,3.8136249],[-63.099509,3.7939631],[-63.0595304,3.740656],[-63.0729137,3.6867044],[-63.032918,3.6705679],[-62.9913829,3.6182646],[-62.950972,3.6111364],[-62.9215027,3.6749481],[-62.889217,3.6789514],[-62.8373067,3.7372082],[-62.7977565,3.7247833],[-62.7843379,3.6982998],[-62.7442769,3.6742007],[-62.7269076,3.8042182],[-62.7740899,3.8352959],[-62.7564491,3.8580311],[-62.7891383,3.8937371],[-62.7835709,3.9334016],[-62.7470355,3.9717592],[-62.7681066,4.0068149],[-62.75055,4.0335209],[-62.6595208,4.0348],[-62.6441359,4.0498782],[-62.5571435,4.0161669],[-62.5621282,4.0378055],[-62.533201,4.0491634],[-62.5399473,4.0789697],[-62.556897,4.0793974],[-62.5480528,4.1123235],[-62.5341934,4.1126288],[-62.5383668,4.1357119],[-62.5102281,4.1303395],[-62.5049474,4.1462888],[-62.4727575,4.1352613],[-62.4571091,4.1585296],[-62.4657742,4.1758901],[-62.4354251,4.1836532],[-62.3629884,4.1716627],[-62.3308626,4.1355554],[-62.2930422,4.1416277],[-62.1977064,4.1135937],[-62.1450525,4.0754347],[-62.1108363,4.0918881],[-62.1162004,4.1180936],[-62.0717611,4.1238784],[-62.0694097,4.1566837],[-62.0245433,4.151665],[-61.9866344,4.1793425],[-61.9295772,4.1174668],[-61.9223452,4.158246],[-61.8734806,4.1495436],[-61.8665978,4.1759434],[-61.8164179,4.1663004],[-61.8210744,4.1986974],[-61.7995886,4.2253163],[-61.7686583,4.2275903],[-61.7751217,4.247402],[-61.727572,4.2672353],[-61.7240144,4.2440027],[-61.6713844,4.2629442],[-61.6462199,4.2588989],[-61.6374032,4.2377628],[-61.6078894,4.2606294],[-61.5898457,4.243177],[-61.5577323,4.2519487],[-61.5059235,4.3198408],[-61.5238817,4.3387416],[-61.5115154,4.4061146],[-61.4514129,4.4389524],[-61.4403741,4.424408],[-61.4211402,4.4332537],[-61.344536,4.4174642],[-61.3197685,4.4298905],[-61.3085975,4.4593429],[-61.2878352,4.4560834],[-61.2793476,4.47474],[-61.3227767,4.502933],[-61.3221224,4.5339307],[-61.2591994,4.5375317],[-61.2209614,4.5216228],[-61.2178411,4.5332639],[-61.1455831,4.4801475],[-61.0926758,4.5232683],[-60.9978797,4.5156047],[-60.984861,4.542666],[-60.957908,4.545161],[-60.956844,4.581665],[-60.931415,4.58433],[-60.9330969,4.6207875],[-60.9515989,4.6432689],[-60.919587,4.663349],[-60.9019056,4.7160772],[-60.8510711,4.7029406],[-60.8074178,4.7478219],[-60.7509317,4.7536892],[-60.672941,4.8293175],[-60.6495965,4.8619239],[-60.6542629,4.8845907],[-60.6273719,4.888566],[-60.5896272,4.9326014],[-60.5822577,4.958822],[-60.5952619,4.9975808],[-60.6168502,5.0087935],[-60.610365,5.0371527],[-60.6468976,5.0570619],[-60.6424051,5.1110199],[-60.6576973,5.1124589],[-60.6636707,5.1612665],[-60.6888075,5.1929066],[-60.7386295,5.207889],[-60.6920638,5.2307262],[-60.6505309,5.2301338],[-60.6276404,5.2122173],[-60.5900256,5.2163525],[-60.5851573,5.198064],[-60.5499123,5.1871834],[-60.5257569,5.2033899],[-60.466771,5.1921925],[-60.452532,5.2022376],[-60.4378377,5.1764773],[-60.412397,5.2112452],[-60.3823843,5.2182805],[-60.3693106,5.2031774],[-60.3209867,5.2009859],[-60.3001249,5.2263659],[-60.2097159,5.2696195],[-60.183322,5.2271643],[-60.1579394,5.2267869],[-60.1301253,5.2492341],[-60.1154964,5.2516308],[-60.0992157,5.242726],[-60.1154336,5.2435665],[-60.1227615,5.2260989],[-60.0990711,5.1956609],[-60.0868857,5.1364529],[-60.063992,5.1378311],[-60.0460271,5.1064698],[-59.9765678,5.079078],[-59.9701999,5.0634101],[-60.0132644,4.8445133],[-60.0345249,4.8016354],[-60.0214022,4.7818621],[-60.0396319,4.7246133],[-60.0254385,4.7063391],[-60.0754904,4.6553591],[-60.0705404,4.6168763],[-60.1237261,4.6048267],[-60.1360422,4.5650326],[-60.156991,4.5730657],[-60.1612455,4.5176362],[-60.1183985,4.5017925],[-60.0886886,4.5335155],[-60.0860988,4.5171059],[-60.0645052,4.520806],[-60.0704062,4.4931448],[-60.0029889,4.4953267],[-59.9730815,4.4804099],[-59.9707564,4.5092841],[-59.9356094,4.4992856],[-59.9097458,4.4604327],[-59.875453,4.4869304],[-59.8619401,4.4524258],[-59.8126019,4.4463463],[-59.7956007,4.4655248],[-59.7944347,4.447774],[-59.6700926,4.3758086],[-59.6792914,4.341192],[-59.7326431,4.2851228],[-59.7313685,4.2693295],[-59.7101748,4.2683719],[-59.7400286,4.2337929],[-59.7311705,4.1810484],[-59.6840053,4.1468197],[-59.6186074,4.132561],[-59.6542626,4.0695801],[-59.6182204,4.0525176],[-59.6015968,4.0294991],[-59.6072865,4.0072499],[-59.5945723,4.0179973],[-59.5970641,4.0008983],[-59.5800214,4.0011597],[-59.5843889,3.9686628],[-59.544759,3.9790124],[-59.5157539,3.9458271],[-59.5268803,3.9244031],[-59.5646537,3.9186202],[-59.5675924,3.8904853],[-59.5777067,3.9019287],[-59.5938125,3.8847802],[-59.5780115,3.8169652],[-59.5982435,3.8149849],[-59.5962125,3.7944468],[-59.6105531,3.8044035],[-59.6292378,3.7841972],[-59.6292505,3.7990436],[-59.6656321,3.7815004],[-59.6800336,3.7568736],[-59.6638718,3.7341678],[-59.6685832,3.7031053],[-59.7522126,3.6527583],[-59.7647484,3.6260676],[-59.850209,3.6050392],[-59.8673779,3.5775765],[-59.8713806,3.5605295],[-59.8425387,3.5530368],[-59.8361262,3.5251532],[-59.8032231,3.5043144],[-59.8272117,3.4803604],[-59.8101571,3.469833],[-59.8239462,3.4718212],[-59.8416894,3.4287397],[-59.8111265,3.4272809],[-59.8220339,3.4129249],[-59.8049053,3.357171],[-59.8341974,3.3527069],[-59.8276015,3.3309087],[-59.8878619,3.241685],[-59.8745843,3.2248806],[-59.908113,3.2122696],[-59.899858,3.153516],[-59.9212054,3.1471693],[-59.9073322,3.1444587],[-59.9193825,3.1323802],[-59.9077996,3.1136769],[-59.9206221,3.1223123],[-59.9556293,3.0822329],[-59.962354,3.0169214],[-59.9468209,2.9998273],[-59.9601577,2.9524237],[-59.9836847,2.9308301],[-59.9778847,2.8961197],[-59.9898415,2.8825568],[-59.9919506,2.6870447],[-59.9577304,2.6096496],[-59.9722213,2.5943853],[-59.9290327,2.5694731],[-59.9384375,2.5529537],[-59.8969108,2.4809764],[-59.9048624,2.3758799],[-59.8884969,2.3554238],[-59.871479,2.3602351],[-59.8440248,2.3206599],[-59.8286773,2.3289404],[-59.7870486,2.2836497],[-59.740617,2.2928309],[-59.7234451,2.2768086],[-59.7418607,2.1625127],[-59.7218007,2.103461],[-59.7426186,2.0686899],[-59.7208146,2.0276106],[-59.7359917,2.0126769],[-59.7513656,1.9065904],[-59.7262562,1.873777],[-59.7360387,1.8505176],[-59.6720155,1.8414641],[-59.6625385,1.8690435],[-59.6539444,1.8164444],[-59.679836,1.806877],[-59.6914172,1.7566346],[-59.6672573,1.7545543],[-59.6638752,1.7365558],[-59.6332544,1.7413119],[-59.6188171,1.7149563],[-59.5665195,1.7354902],[-59.5380039,1.7213282],[-59.5112539,1.6675911],[-59.4928702,1.6733217],[-59.4837382,1.627998],[-59.445172,1.6172206],[-59.4304539,1.5642187],[-59.397542,1.5549671],[-59.3838074,1.5067762],[-59.3296377,1.5143185],[-59.3278398,1.4629615],[-59.2866263,1.4537567],[-59.2832579,1.4083526],[-59.1448498,1.3466737],[-59.088536,1.3472867],[-59.0478612,1.32156],[-58.9953087,1.3281547],[-58.9795685,1.3020373],[-58.9182009,1.3164083],[-58.9239584,1.2901921],[-58.8878761,1.260887],[-58.9114385,1.2359751],[-58.8831272,1.2298226],[-58.8573569,1.1844968],[-58.8306139,1.1890726],[-58.8247271,1.170937],[-58.7950922,1.1918051],[-58.771942,1.1864757],[-58.7526849,1.2090451],[-58.740048,1.1987296],[-58.7146052,1.2368506],[-58.7092325,1.2937059],[-58.6824899,1.2972745],[-58.6634958,1.2795657],[-58.6350968,1.2903832],[-58.5883355,1.2616054],[-58.5665744,1.2966634],[-58.5427637,1.2913244],[-58.5231928,1.2578586],[-58.5131907,1.2773141],[-58.494475,1.2688197],[-58.4567059,1.3726184],[-58.5067007,1.4025528],[-58.5114782,1.4614777],[-58.4481301,1.4543946],[-58.3728906,1.4756663],[-58.3952309,1.5259585],[-58.341527,1.5510611],[-58.3446197,1.5755867],[-58.325626,1.5966396],[-58.3209345,1.5650048],[-58.260241,1.5695241],[-58.2330183,1.5458502],[-58.1914981,1.572721],[-58.1605,1.5510833],[-58.1492066,1.5079006],[-58.1297867,1.4977429],[-58.0975528,1.5136714],[-58.0694664,1.5066468],[-58.0637923,1.5250859],[-58.0033679,1.5006937],[-57.977395,1.5698509],[-57.9846443,1.6308678],[-58.0033388,1.64474],[-57.995965,1.6600645],[-57.9160169,1.6437032],[-57.8997487,1.6722816],[-57.8529273,1.6760291],[-57.8503485,1.6893327],[-57.8011272,1.68172],[-57.7948283,1.7237258],[-57.7783658,1.7274971],[-57.7156846,1.7087405],[-57.703443,1.7229516],[-57.65295,1.6786443],[-57.5842641,1.7094101],[-57.5797848,1.6876017],[-57.5566793,1.6894658],[-57.5412818,1.7217792],[-57.5149651,1.723691],[-57.5000674,1.7927047],[-57.4455816,1.8106488],[-57.4356915,1.9066037],[-57.3680803,1.9239722],[-57.3546897,1.9771992],[-57.3166537,1.9794306],[-57.3076885,1.9993776],[-57.2699618,1.9839681],[-57.275877,1.9674494],[-57.2283347,1.9377458],[-57.2031551,1.9796086],[-57.1840269,1.9786065],[-57.1829241,1.9991916],[-57.1501617,1.9912939],[-57.1163399,2.0329837],[-57.0985415,2.0205724],[-57.0867203,2.0297476],[-57.0696752,1.9623944],[-57.0283158,1.9510854],[-57.0277114,1.9255377],[-56.9713517,1.8920754],[-56.9625598,1.869267],[-56.9252119,1.889319],[-56.9378002,1.9130693],[-56.9202163,1.9349333],[-56.9136223,1.8935269],[-56.8304075,1.8885033],[-56.7965744,1.8692112],[-56.7976856,1.8459499],[-56.766192,1.8750936],[-56.7671173,1.8952086],[-56.7362533,1.896131],[-56.7365922,1.9139198],[-56.7144697,1.9248065],[-56.663239,1.9127196],[-56.6199522,1.9458425],[-56.5829171,1.9047769],[-56.5619098,1.9063902],[-56.4969584,1.9336674],[-56.4852809,1.9544708],[-56.4500151,1.9564232],[-56.4051064,1.9172346],[-56.3615555,1.9440351],[-56.337573,1.9389457],[-56.2470978,1.8784275],[-56.2334143,1.9007048],[-56.1966173,1.8892386],[-56.1708049,1.9003496],[-56.1004198,1.8511644],[-56.0831258,1.8628212],[-56.0003056,1.8361389],[-55.958947,1.8511769],[-55.9329875,1.8822798],[-55.8952681,1.8949866],[-55.9394203,1.988683],[-55.9311818,2.0022411],[-55.9080941,1.9920855],[-55.8997866,2.0417949],[-55.9321506,2.0569886],[-55.9273072,2.0791371],[-55.9653373,2.0880971],[-55.9996875,2.1675044],[-56.0528731,2.1841802],[-56.0333139,2.2167856],[-56.0465614,2.2349062],[-56.0856321,2.2510725],[-56.0985988,2.2401702],[-56.1388606,2.2672036],[-56.0929309,2.321751],[-56.0903463,2.3678157],[-56.0492932,2.3352721],[-56.0207936,2.3450685],[-56.0391784,2.3624441],[-55.9874434,2.4151735],[-55.986478,2.4317778],[-56.0124637,2.4462913],[-55.9780659,2.4813747],[-55.993939,2.5014839],[-55.9764658,2.5257643],[-55.9217772,2.528189],[-55.9220647,2.5133504],[-55.8996308,2.5155798],[-55.8457058,2.4634862],[-55.7647625,2.4553026],[-55.7493362,2.4099235],[-55.7183969,2.4003011],[-55.6946083,2.4200657],[-55.6635508,2.4126121],[-55.5861532,2.435895],[-55.5691553,2.4238952],[-55.4593919,2.4462285],[-55.4289682,2.433587],[-55.4034451,2.4450535],[-55.4014673,2.4166373],[-55.3773411,2.4100353],[-55.3451253,2.448647],[-55.368117,2.4664724],[-55.3647687,2.4847806],[-55.3491625,2.4776668],[-55.3517987,2.5053998],[-55.3154396,2.5302074],[-55.2920465,2.5130835],[-55.2784198,2.5223999],[-55.2632771,2.4856454],[-55.2483817,2.485899],[-55.225628,2.5170988],[-55.2139522,2.5004463],[-55.1980947,2.5069721],[-55.2071389,2.5232778],[-55.1839666,2.5348746],[-55.1915079,2.5580488],[-55.1536628,2.5770395],[-55.1473502,2.5627228],[-55.123,2.5680556],[-55.1179419,2.5160771],[-55.0938804,2.5366677],[-55.0742139,2.5259215],[-55.0096088,2.5935146],[-54.9710469,2.6003495],[-54.9385003,2.6323455],[-54.9332304,2.5895695],[-54.9538333,2.5895556],[-54.9716901,2.5665284],[-54.9242143,2.5009602],[-54.9093288,2.5008531],[-54.9123171,2.4848916],[-54.8652625,2.4711714],[-54.8764278,2.4341712],[-54.8165103,2.421789],[-54.7945848,2.4314431],[-54.7975377,2.4464608],[-54.7742325,2.4483803],[-54.7701095,2.4756712],[-54.7609337,2.4635274],[-54.6959479,2.4621114],[-54.6844444,2.4471667],[-54.7032989,2.4325224],[-54.6858056,2.4116389],[-54.7191402,2.4038632],[-54.706094,2.3625753],[-54.6637146,2.3565113],[-54.6623314,2.3278765],[-54.6429791,2.3221982],[-54.6153489,2.3221063],[-54.6132419,2.3389973],[-54.5875893,2.3222727],[-54.5368689,2.3254137],[-54.5136557,2.2798544],[-54.5487188,2.2696502],[-54.4993376,2.2518857],[-54.4771635,2.212568],[-54.4490389,2.2036797],[-54.4233216,2.214365],[-54.4105043,2.1981704],[-54.3771176,2.2263932],[-54.3591372,2.2242047],[-54.3628118,2.1777777],[-54.3350303,2.1536741],[-54.2673281,2.1434189],[-54.1876872,2.1794885],[-54.1561797,2.1225043],[-54.1017567,2.1116956],[-54.0650735,2.1965841],[-54.0166947,2.1819183],[-53.9879233,2.2113171],[-53.9441767,2.2150563],[-53.9376719,2.2828797],[-53.8862267,2.2727179],[-53.8831284,2.3087477],[-53.8495132,2.3129785],[-53.766995,2.3753972],[-53.7376161,2.3737434],[-53.7524635,2.3595803],[-53.7209267,2.35073],[-53.7451701,2.3190248],[-53.7348956,2.3017193],[-53.7003719,2.3118193],[-53.6975951,2.2935854],[-53.6688798,2.303823],[-53.6680528,2.2853613],[-53.6445515,2.275444],[-53.5991796,2.280866],[-53.5868539,2.2633975],[-53.4697425,2.2518965],[-53.4315173,2.2825801],[-53.432512,2.2982483],[-53.4091745,2.287455],[-53.3399304,2.3520526],[-53.3341841,2.336202],[-53.3180472,2.3420704],[-53.3015945,2.3062344],[-53.2601469,2.2933791],[-53.2613763,2.273092],[-53.2255922,2.2621696],[-53.2579814,2.2423792],[-53.2729376,2.1898008],[-53.2475392,2.2111887],[-53.2225672,2.2006063],[-53.1021041,2.2259503],[-52.9876745,2.1680849],[-52.9440598,2.1771177],[-52.934757,2.1946987],[-52.9047464,2.1882282],[-52.8877078,2.2384688],[-52.8538652,2.2641121],[-52.8586043,2.2815226],[-52.6608607,2.3739169],[-52.6463079,2.4329972],[-52.6104438,2.4524992],[-52.6186252,2.4745568],[-52.595297,2.4760987],[-52.5519355,2.5199771],[-52.5612733,2.5502911],[-52.53688,2.5586636],[-52.527596,2.5830971],[-52.5552871,2.6402241],[-52.5292498,2.6519374],[-52.421761,2.8913896],[-52.3771892,2.9165503],[-52.3952102,2.927683],[-52.3934919,2.9460998],[-52.3261042,3.0766213],[-52.3528862,3.1269871],[-52.3315065,3.1372006],[-52.3312866,3.1708712],[-52.3013258,3.1730521],[-52.2925133,3.2264208],[-52.2604514,3.2530006],[-52.2347242,3.2399753],[-52.1896885,3.2985963],[-52.0734055,3.515533],[-51.9881613,3.6281758],[-51.973907,3.7062779],[-51.9221595,3.7238904],[-51.919695,3.7814212],[-51.8968084,3.7847117],[-51.9028223,3.8007701],[-51.8740469,3.8027885],[-51.7986377,3.8881364],[-51.7791077,3.9714556],[-51.6576833,4.0519743],[-51.6294622,4.1954097],[-51.6699607,4.2832242],[-51.6776113,4.3511905],[-51.6700208,4.4254296],[-51.6353282,4.4548636],[-51.6315855,4.5016577],[-51.4858816,4.4371787],[-51.3318401,4.3057986],[-51.2163934,4.1499569],[-51.1760625,4.0141299],[-51.1792978,3.9194963],[-51.101868,3.9127957],[-51.0830309,3.8949512],[-51.0817748,3.5595385],[-51.0910111,3.4804817],[-51.1093087,3.4506267],[-51.0328225,3.213689],[-51.0444104,3.1340039],[-51.0142975,3.0855578],[-51.021168,3.0513765],[-50.9837647,2.9370667],[-50.9505117,2.8821705],[-50.9542073,2.8372368],[-50.9084916,2.7888666],[-50.9053534,2.7569398],[-50.8846611,2.741416],[-50.8824485,2.6882411],[-50.847721,2.6403442],[-50.8270103,2.5127706],[-50.7942244,2.4985492],[-50.7703726,2.4534216],[-50.7448815,2.3200337],[-50.7226278,2.2877466],[-50.7245089,2.2442907],[-50.6866313,2.1910505],[-50.6818668,2.1334028],[-50.6037459,2.0730336],[-50.5826601,1.9896326],[-50.4448388,1.8150358],[-50.4004643,1.800265],[-50.3246141,1.815381],[-50.1657586,1.8130306],[-50.0190241,1.7531074],[-49.9206183,1.6879296],[-49.8765416,1.4504271],[-49.8836418,1.3399816],[-49.9042695,1.2955915],[-49.8975781,1.1915839],[-49.883083,1.169077],[-49.887607,1.0229341],[-49.9441401,0.9593579],[-49.989014,0.9395151],[-50.0024735,0.9064127],[-49.9876153,0.8760135],[-50.0202612,0.85877],[-50.097362,0.7670499],[-50.2116891,0.7462436],[-50.2312447,0.7301393],[-50.2040384,0.6480152],[-50.1334898,0.6196196],[-50.0836419,0.640194],[-50.0459787,0.6139167],[-50.0291514,0.5780597],[-50.036413,0.5341784],[-50.0774344,0.4634433],[-50.1727376,0.397643],[-50.1678189,0.3402908],[-49.9929089,0.3384154],[-49.9805094,0.3605031],[-49.9459107,0.3657748],[-49.9097946,0.3448502],[-49.9141643,0.3196954],[-49.8222142,0.356306],[-49.8077867,0.3320504],[-49.731086,0.3752833],[-49.618127,0.3920543],[-49.5819234,0.418674],[-49.5073195,0.3748817],[-49.4894353,0.3430122],[-49.4950295,0.3186274],[-49.63329,0.2413523],[-49.6927197,0.1780972],[-49.6995784,0.1505051],[-49.6656591,0.096562],[-49.6322276,0.0748934],[-49.5769481,0.0907358],[-49.4789561,0.0810633],[-49.3749153,0.0443993],[-49.3574527,-0.0239332],[-49.4167957,-0.0674722],[-49.4386111,-0.1264927],[-49.4221892,-0.1684469],[-49.3941761,-0.1909461],[-49.3285675,-0.1578294],[-49.2475568,-0.1655551],[-49.1961676,-0.1313531],[-49.1665695,-0.1289666],[-49.1559584,-0.1577975],[-49.1296989,-0.1710227],[-49.0126204,-0.1598834],[-48.9972673,-0.1862099],[-48.9183905,-0.2295529],[-48.8100784,-0.2147657],[-48.7119713,-0.2518484],[-48.6335677,-0.2315883],[-48.5051168,-0.2425761],[-48.426751,-0.2282564],[-48.3811164,-0.2767252],[-48.3771369,-0.3210575],[-48.4513148,-0.4339314],[-48.4737255,-0.526714],[-48.4866654,-0.7271883],[-48.5121803,-0.7596886],[-48.5009829,-0.8289575],[-48.4747161,-0.8739021],[-48.3948446,-0.9109979],[-48.2810471,-0.913045],[-48.2294917,-0.8278161],[-48.1700649,-0.8152033],[-48.1584045,-0.7742128],[-48.0552178,-0.6617695],[-48.0263029,-0.6681662],[-48.0196956,-0.6865582],[-47.9912195,-0.694686],[-47.9794683,-0.6894433],[-47.9593784,-0.6344459],[-47.9165775,-0.6220999],[-47.9201088,-0.6018857],[-47.9106469,-0.6034915],[-47.9070936,-0.6005653],[-47.9124237,-0.5624577],[-47.8678139,-0.5620488],[-47.8593644,-0.5882901],[-47.8467805,-0.5878564],[-47.8664079,-0.6672319],[-47.8405827,-0.6827757],[-47.8205928,-0.6364821],[-47.830646,-0.6105249],[-47.8192911,-0.5623301],[-47.7982445,-0.5584312],[-47.8079778,-0.5878563],[-47.7775832,-0.5817874],[-47.7611011,-0.610536],[-47.7704415,-0.5627386],[-47.7446982,-0.567065],[-47.7542545,-0.54317],[-47.7038784,-0.534576],[-47.7042948,-0.5533111],[-47.6900292,-0.5558379],[-47.7014179,-0.5962187],[-47.6699627,-0.5751776],[-47.6327309,-0.6021061],[-47.6454537,-0.6885252],[-47.6291248,-0.7072738],[-47.6074884,-0.6969405],[-47.5868177,-0.6390544],[-47.5892911,-0.5758006],[-47.5384929,-0.6044676],[-47.5405381,-0.6390999],[-47.521484,-0.6476954],[-47.4815661,-0.7390834],[-47.4701326,-0.7087694],[-47.4765579,-0.5935174],[-47.4149039,-0.5914929],[-47.4308354,-0.6407959],[-47.4265092,-0.657411],[-47.4195257,-0.6395204],[-47.395899,-0.6539644],[-47.3890851,-0.6277844],[-47.3689948,-0.628976],[-47.3842549,-0.6024933],[-47.3533275,-0.6127869],[-47.3202742,-0.5913287],[-47.2863682,-0.6029552],[-47.2940686,-0.6450141],[-47.2506801,-0.6452946],[-47.2577454,-0.6227924],[-47.2181925,-0.6326806],[-47.2047653,-0.6499727],[-47.2075805,-0.6971332],[-47.1725936,-0.6741111],[-47.1680438,-0.7649286],[-47.1272968,-0.714756],[-47.140301,-0.6984657],[-47.1211877,-0.6762125],[-47.094842,-0.6724402],[-47.0753848,-0.6939467],[-47.0993903,-0.7534795],[-47.0824777,-0.7529659],[-47.0766263,-0.7859945],[-47.0668339,-0.7746103],[-47.0559812,-0.7972907],[-47.0374202,-0.7940059],[-47.027901,-0.7636656],[-47.0046935,-0.7650153],[-46.9927824,-0.7134008],[-46.9581177,-0.7107458],[-46.9461513,-0.7309943],[-46.9702914,-0.7674795],[-46.9422472,-0.8074709],[-46.9412115,-0.8692435],[-46.9161311,-0.852419],[-46.912821,-0.8211231],[-46.883672,-0.8076491],[-46.8836674,-0.7671805],[-46.8628848,-0.7597503],[-46.8721522,-0.7513862],[-46.8608736,-0.7410597],[-46.8318946,-0.7545257],[-46.8243366,-0.7912143],[-46.8399918,-0.7932949],[-46.8243944,-0.8050323],[-46.8440128,-0.8195632],[-46.8310523,-0.8430455],[-46.8044122,-0.8267797],[-46.8017476,-0.8724079],[-46.7661509,-0.8395931],[-46.7606427,-0.7986069],[-46.724095,-0.8667535],[-46.6995868,-0.8349643],[-46.6712143,-0.8513651],[-46.6769427,-0.8218427],[-46.6628794,-0.8130152],[-46.6805556,-0.7962729],[-46.6435376,-0.7929867],[-46.5955141,-0.8464111],[-46.6421233,-0.9094932],[-46.624984,-0.9211857],[-46.6420417,-0.9488571],[-46.6364085,-0.9690785],[-46.601961,-0.9569416],[-46.5774852,-0.9815032],[-46.5525851,-0.9137613],[-46.5328208,-0.9085787],[-46.537383,-0.9547992],[-46.5150786,-0.9296538],[-46.5102137,-0.8816048],[-46.49376,-0.872606],[-46.4663971,-0.8940429],[-46.468915,-0.8739813],[-46.4238017,-0.8664508],[-46.4102555,-0.8876399],[-46.4459789,-0.910891],[-46.4598459,-0.9034518],[-46.4805066,-0.9204984],[-46.4632403,-0.9457402],[-46.4953092,-0.9746218],[-46.468977,-0.9816899],[-46.4662492,-1.0264336],[-46.4283765,-1.0241255],[-46.3989375,-0.9965315],[-46.3816599,-1.0263708],[-46.3477572,-1.006757],[-46.3192855,-1.0237075],[-46.2676913,-0.9651558],[-46.2648307,-0.9134146],[-46.2029373,-0.8853199],[-46.1758755,-0.9454293],[-46.2221249,-0.984499],[-46.2047896,-1.0584145],[-46.239477,-1.1012325],[-46.1904802,-1.0761929],[-46.1754358,-0.9998522],[-46.1605034,-1.0051743],[-46.1502541,-1.0436302],[-46.1648714,-1.089011],[-46.1245039,-1.041454],[-46.0770887,-1.0240667],[-46.0723494,-1.0458292],[-46.0938547,-1.0567345],[-46.0615112,-1.102564],[-46.0871388,-1.1344187],[-46.1035897,-1.2024278],[-46.0770824,-1.1962431],[-46.0563551,-1.1315822],[-46.0385085,-1.1729994],[-46.0460616,-1.1211408],[-45.9783456,-1.0493281],[-45.9643878,-1.0597667],[-45.9844518,-1.0659755],[-45.9678261,-1.0872214],[-45.983662,-1.1114026],[-45.9616581,-1.1116886],[-45.9577631,-1.1951372],[-45.9472527,-1.202378],[-45.860561,-1.0497095],[-45.8449399,-1.0692729],[-45.8501838,-1.1019852],[-45.9120749,-1.1663413],[-45.9059533,-1.1718613],[-45.8746768,-1.1498999],[-45.8838661,-1.1784009],[-45.8684205,-1.1718283],[-45.8752491,-1.1926124],[-45.8622625,-1.1811872],[-45.8598333,-1.2137572],[-45.8263332,-1.2036307],[-45.8290085,-1.1766265],[-45.8021239,-1.1612731],[-45.7996427,-1.1799169],[-45.768167,-1.1989824],[-45.7209286,-1.1100086],[-45.6909081,-1.1486673],[-45.7382134,-1.2201298],[-45.7164534,-1.2602334],[-45.6898993,-1.2736014],[-45.6480625,-1.2369722],[-45.6298877,-1.123629],[-45.6135664,-1.1629369],[-45.6434711,-1.2229781],[-45.6367872,-1.2811918],[-45.5937076,-1.2667204],[-45.5921061,-1.3024372],[-45.5489371,-1.276383],[-45.5449925,-1.3013778],[-45.5145258,-1.3070776],[-45.5267855,-1.3587696],[-45.512442,-1.3780868],[-45.5027106,-1.3751433],[-45.4759214,-1.3248382],[-45.4460528,-1.3118023],[-45.4559318,-1.2965225],[-45.4095325,-1.3033063],[-45.4216764,-1.3530531],[-45.474976,-1.3720072],[-45.4850106,-1.4771809],[-45.463828,-1.4771148],[-45.4361972,-1.4283951],[-45.4045197,-1.4206918],[-45.3703829,-1.3955306],[-45.3764183,-1.3667398],[-45.3575628,-1.3460142],[-45.3406885,-1.3520169],[-45.366013,-1.3277622],[-45.3603818,-1.3173753],[-45.3048976,-1.3364114],[-45.3137529,-1.3729608],[-45.3003971,-1.4376351],[-45.388205,-1.472017],[-45.3367861,-1.477224],[-45.3084477,-1.4968108],[-45.3195515,-1.5572434],[-45.3434691,-1.5867941],[-45.334755,-1.5943148],[-45.2609196,-1.5960815],[-45.1980237,-1.488425],[-45.1751208,-1.4953615],[-45.1525746,-1.4703651],[-45.1427251,-1.4832407],[-45.1324901,-1.4847851],[-45.103193,-1.4731292],[-45.0967094,-1.4554646],[-45.0488938,-1.4903513],[-45.0064892,-1.4861296],[-44.9897782,-1.5110446],[-45.0071779,-1.5317591],[-44.9787099,-1.5245868],[-44.9546939,-1.5608243],[-44.948193,-1.5384051],[-44.9731124,-1.5025236],[-44.9684633,-1.4769937],[-44.9371235,-1.4898735],[-44.8868355,-1.4420889],[-44.8863524,-1.4201299],[-44.8376792,-1.4210802],[-44.8434318,-1.4882533],[-44.8851088,-1.4779087],[-44.8728836,-1.4890643],[-44.8948548,-1.5111731],[-44.9000356,-1.5352831],[-44.9182656,-1.5390394],[-44.9109104,-1.5986011],[-44.871562,-1.6013998],[-44.856091,-1.6183939],[-44.8357046,-1.5729409],[-44.8026869,-1.5894386],[-44.7788165,-1.5784472],[-44.7685833,-1.5612938],[-44.7634948,-1.5947364],[-44.7082397,-1.5516933],[-44.7088926,-1.5806152],[-44.6836799,-1.5656042],[-44.6570985,-1.5877507],[-44.6363315,-1.6165594],[-44.6609646,-1.6619758],[-44.6750018,-1.6413743],[-44.7467772,-1.6507327],[-44.799796,-1.7042931],[-44.7009158,-1.7262436],[-44.7572234,-1.7893558],[-44.6460499,-1.7651405],[-44.6525225,-1.7154006],[-44.6010659,-1.7397075],[-44.6177045,-1.7608214],[-44.5733624,-1.7751954],[-44.5906653,-1.7821546],[-44.5640392,-1.8035814],[-44.5646047,-1.8353256],[-44.5332798,-1.8227542],[-44.5535061,-1.885034],[-44.5145672,-1.8857296],[-44.4891805,-1.9570588],[-44.5113407,-1.9581409],[-44.4812537,-1.9868997],[-44.5155667,-2.0127265],[-44.5638024,-2.0154842],[-44.5759943,-2.0241435],[-44.5324984,-2.0362582],[-44.5016634,-2.023597],[-44.485295,-2.0427411],[-44.5524568,-2.0890174],[-44.566719,-2.1256263],[-44.588308,-2.1346393],[-44.5949971,-2.1816147],[-44.6341237,-2.2285412],[-44.6836729,-2.2561427],[-44.6820804,-2.2721154],[-44.6507525,-2.2952178],[-44.627593,-2.2908973],[-44.6160988,-2.2579701],[-44.5429628,-2.1955583],[-44.5301359,-2.1598641],[-44.4637777,-2.1442979],[-44.3984631,-2.2143858],[-44.3911636,-2.2757346],[-44.357905,-2.336858],[-44.3795387,-2.3554876],[-44.3723585,-2.3807378],[-44.3879763,-2.4088868],[-44.4778895,-2.4112011],[-44.4984473,-2.4258806],[-44.458165,-2.4340941],[-44.4429414,-2.4575159],[-44.4759972,-2.4850476],[-44.4902258,-2.5217285],[-44.5121871,-2.5351872],[-44.5345819,-2.527683],[-44.5847545,-2.6571535],[-44.6265548,-2.702094],[-44.6238064,-2.7389322],[-44.6516071,-2.8074561],[-44.6332237,-2.8574359],[-44.6808045,-2.9289081],[-44.6753682,-2.9964884],[-44.653451,-3.0175429],[-44.5324988,-3.0440498],[-44.4633125,-2.9971843],[-44.4248175,-2.9439339],[-44.407025,-2.8939946],[-44.4091688,-2.7924832],[-44.3540919,-2.6031972],[-44.3779965,-2.5668188],[-44.3575507,-2.5537049],[-44.3559014,-2.532608],[-44.3208355,-2.5271833],[-44.3093309,-2.5389347],[-44.3203242,-2.5028507],[-44.3041551,-2.4873341],[-44.1744068,-2.4583777],[-44.0946029,-2.4066045],[-44.0308375,-2.4070153],[-44.0238281,-2.4487252],[-44.0526525,-2.4688077],[-44.0238605,-2.5082929],[-44.0360635,-2.5565441],[-44.0928115,-2.574744],[-44.1375868,-2.681636],[-44.2495717,-2.7303218],[-44.2660385,-2.757982],[-44.2414346,-2.7805082],[-44.0893243,-2.7512624],[-43.99999999803763,-2.6370701220308765],[-43.99999999999994,-6.758044188983071]]],[[[-48.4303803,-0.8055122],[-48.4285182,-0.8078842],[-48.4330587,-0.8080373],[-48.4303803,-0.8055122]]],[[[-47.9964263,-0.6815524],[-47.9922737,-0.6845216],[-47.9923365,-0.6935122],[-47.9964263,-0.6815524]]],[[[-48.0113645,-0.68518],[-48.0163285,-0.6712231],[-48.0116434,-0.661917],[-48.0061432,-0.6691896],[-48.0113645,-0.68518]]],[[[-48.8645553,-0.1887771],[-48.9459871,-0.2088596],[-48.9320674,-0.1620401],[-48.8796787,-0.1572364],[-48.8796563,-0.1804215],[-48.8645553,-0.1887771]]],[[[-48.9823895,-0.1841984],[-48.9752675,-0.1757815],[-48.9684242,-0.1893564],[-48.9823895,-0.1841984]]],[[[-48.9446266,-0.1710554],[-48.94304,-0.1809938],[-48.9482304,-0.1817943],[-48.9446266,-0.1710554]]],[[[-48.7637358,-0.186102],[-48.7585583,-0.1639422],[-48.7470372,-0.1695764],[-48.7637358,-0.186102]]],[[[-48.7366518,-0.1715505],[-48.7314347,-0.1706356],[-48.7328408,-0.1736388],[-48.7366518,-0.1715505]]],[[[-48.9770486,-0.1723267],[-48.9749566,-0.1668288],[-48.9751561,-0.1719881],[-48.9770486,-0.1723267]]],[[[-49.1540909,-0.1488814],[-49.122735,-0.14513],[-49.1240731,-0.1593244],[-49.1540909,-0.1488814]]],[[[-49.4492118,0.1142903],[-49.5069066,0.1265918],[-49.4842289,0.1499557],[-49.4492118,0.1142903]]],[[[-49.6784966,0.163132],[-49.6328581,0.1945],[-49.6023642,0.1694676],[-49.6154018,0.1528203],[-49.6648539,0.1475552],[-49.6784966,0.163132]]],[[[-49.6079039,0.1919535],[-49.5648179,0.2060799],[-49.5549293,0.2064331],[-49.5683496,0.1810055],[-49.6079039,0.1919535]]],[[[-49.6260974,0.1987989],[-49.6318823,0.2102698],[-49.6021381,0.2427679],[-49.5578184,0.2438638],[-49.6260974,0.1987989]]],[[[-50.4054105,2.1112592],[-50.361836,2.0599538],[-50.3624547,2.0220263],[-50.3219536,1.9752251],[-50.3174204,1.9475023],[-50.3699353,1.887125],[-50.4289008,1.8674569],[-50.4549172,1.8884971],[-50.4986396,1.9945379],[-50.5203749,2.0013038],[-50.5096342,2.0827109],[-50.5042092,2.0940301],[-50.4684307,2.1000039],[-50.4574149,2.1126951],[-50.4054105,2.1112592]]],[[[-50.4723463,2.1829995],[-50.4321982,2.1579723],[-50.4194917,2.1232878],[-50.4583402,2.1152468],[-50.4712717,2.1022984],[-50.5036089,2.0980623],[-50.5530992,2.1513497],[-50.5199793,2.1837403],[-50.4723463,2.1829995]]],[[[-45.9561392,-1.1870407],[-45.9534889,-1.1872219],[-45.9558906,-1.1917283],[-45.9561392,-1.1870407]]],[[[-45.9044566,-1.1635808],[-45.8949845,-1.1520223],[-45.8924012,-1.1504811],[-45.9044566,-1.1635808]]],[[[-45.8262424,-1.127116],[-45.805692,-1.1271903],[-45.8129996,-1.1525206],[-45.8267988,-1.1506294],[-45.8262424,-1.127116]]],[[[-46.0142789,-1.0720247],[-46.0118271,-1.076884],[-46.0173838,-1.0772526],[-46.0142789,-1.0720247]]],[[[-46.4367577,-1.0184528],[-46.4372262,-1.0191439],[-46.4375384,-1.0189208],[-46.4367577,-1.0184528]]],[[[-46.4386195,-1.0183164],[-46.4405622,-1.0182143],[-46.437507,-1.0178435],[-46.4386195,-1.0183164]]],[[[-46.3858082,-1.009658],[-46.3747763,-1.0187917],[-46.3806024,-1.0225848],[-46.3858082,-1.009658]]],[[[-46.4450044,-1.010894],[-46.434234,-1.0152695],[-46.4489456,-1.0163666],[-46.4450044,-1.010894]]],[[[-46.4404786,-1.0060421],[-46.4366333,-1.0042768],[-46.4406767,-1.0064519],[-46.4404786,-1.0060421]]],[[[-46.4807148,-0.9738036],[-46.4827459,-0.9712466],[-46.4791413,-0.9721775],[-46.4807148,-0.9738036]]],[[[-46.3399791,-0.9598486],[-46.3221321,-0.9364081],[-46.3074602,-0.9398237],[-46.3128084,-1.0073333],[-46.3399791,-0.9598486]]],[[[-46.4693962,-0.9672453],[-46.4760047,-0.9687027],[-46.4686772,-0.9639151],[-46.4693962,-0.9672453]]],[[[-46.4362256,-0.9903981],[-46.4037447,-0.9437733],[-46.4049169,-0.96538],[-46.4362256,-0.9903981]]],[[[-46.6201318,-0.9459263],[-46.6056336,-0.9544017],[-46.6268469,-0.9592361],[-46.6201318,-0.9459263]]],[[[-46.1409364,-0.9247014],[-46.1444586,-0.9479026],[-46.1529496,-0.9542341],[-46.1529954,-0.926512],[-46.1409364,-0.9247014]]],[[[-46.462003,-0.9080865],[-46.4562005,-0.9086493],[-46.4640266,-0.914076],[-46.462003,-0.9080865]]],[[[-46.7212843,-0.7831275],[-46.7237372,-0.7900365],[-46.7293356,-0.7831118],[-46.7212843,-0.7831275]]],[[[-47.8460418,-0.6676326],[-47.8409823,-0.6561171],[-47.842255,-0.6718447],[-47.8460418,-0.6676326]]],[[[-47.9831396,-0.6718127],[-47.9847467,-0.6564446],[-47.9750516,-0.6486633],[-47.973037,-0.661912],[-47.9831396,-0.6718127]]],[[[-47.8376642,-0.65581],[-47.8356304,-0.6629968],[-47.836779,-0.6647499],[-47.8376642,-0.65581]]],[[[-47.8294543,-0.6396906],[-47.822862,-0.633983],[-47.8271761,-0.6487741],[-47.8294543,-0.6396906]]],[[[-47.8519187,-0.6366051],[-47.8525862,-0.6359847],[-47.8512827,-0.6348561],[-47.8519187,-0.6366051]]],[[[-47.9208577,-0.5945327],[-47.910921,-0.5979448],[-47.9097075,-0.600686],[-47.9208577,-0.5945327]]],[[[-47.9215728,-0.5767371],[-47.9143856,-0.5825823],[-47.9139811,-0.5843788],[-47.9215728,-0.5767371]]],[[[-44.7805965,-1.5736593],[-44.7836732,-1.5767361],[-44.7853436,-1.5758566],[-44.7805965,-1.5736593]]],[[[-44.8287938,-1.5577426],[-44.8304042,-1.5675791],[-44.8391111,-1.557486],[-44.8287938,-1.5577426]]],[[[-44.8983705,-1.5305988],[-44.8959568,-1.5280711],[-44.8954984,-1.532612],[-44.8983705,-1.5305988]]],[[[-44.7949989,-1.5128982],[-44.8091403,-1.5609906],[-44.8365906,-1.5427916],[-44.7806213,-1.4786061],[-44.7743897,-1.4873044],[-44.7949989,-1.5128982]]],[[[-44.8696231,-1.4897399],[-44.8667139,-1.4930562],[-44.8719884,-1.4918355],[-44.8696231,-1.4897399]]],[[[-44.8705015,-1.4874398],[-44.8709764,-1.489063],[-44.8713823,-1.489063],[-44.8705015,-1.4874398]]],[[[-45.1415723,-1.4774603],[-45.1427216,-1.4736915],[-45.1410427,-1.4714968],[-45.1415723,-1.4774603]]],[[[-45.0985909,-1.448487],[-45.0970194,-1.4478044],[-45.0965423,-1.4504676],[-45.0985909,-1.448487]]],[[[-45.1170459,-1.4293151],[-45.1030172,-1.4641533],[-45.1292147,-1.4717211],[-45.1337406,-1.4602745],[-45.1170459,-1.4293151]]],[[[-45.0738385,-1.4595151],[-45.084892,-1.442479],[-45.0788692,-1.4278539],[-45.0703916,-1.4380112],[-45.0738385,-1.4595151]]],[[[-45.0860204,-1.4262484],[-45.0968168,-1.4350059],[-45.0878538,-1.4224201],[-45.0860204,-1.4262484]]],[[[-45.4138661,-1.4207706],[-45.4172051,-1.4029085],[-45.4044751,-1.4010848],[-45.4138661,-1.4207706]]],[[[-45.0996367,-1.4323891],[-45.1020558,-1.4193026],[-45.0745592,-1.3721036],[-45.0746058,-1.3895435],[-45.0996367,-1.4323891]]],[[[-45.1125225,-1.4051684],[-45.1268047,-1.3854402],[-45.1131232,-1.3625906],[-45.0931397,-1.3823912],[-45.1125225,-1.4051684]]],[[[-45.041639,-1.3725646],[-45.0461275,-1.3989538],[-45.047725,-1.3661901],[-45.041639,-1.3725646]]],[[[-45.5006227,-1.353048],[-45.4973871,-1.3596173],[-45.4994119,-1.361768],[-45.5006227,-1.353048]]],[[[-45.4870054,-1.3396967],[-45.4902045,-1.3469166],[-45.4918727,-1.3483685],[-45.4870054,-1.3396967]]],[[[-44.9865661,-1.2661465],[-44.8781392,-1.2854746],[-44.8673909,-1.3296053],[-45.0067443,-1.3998824],[-45.0214093,-1.3840191],[-45.0140703,-1.3494541],[-45.033862,-1.3380293],[-45.028776,-1.3180265],[-44.9785011,-1.316826],[-45.0012717,-1.2949166],[-44.9865661,-1.2661465]]],[[[-45.5696245,-1.2704798],[-45.5760576,-1.2622053],[-45.5704958,-1.2605424],[-45.5696245,-1.2704798]]],[[[-45.6503952,-1.2291015],[-45.6498009,-1.2342977],[-45.6521729,-1.2345773],[-45.6503952,-1.2291015]]],[[[-45.7095628,-1.2345401],[-45.6994375,-1.1987561],[-45.6832052,-1.1858948],[-45.6699742,-1.2506397],[-45.692355,-1.2656248],[-45.7095628,-1.2345401]]],[[[-45.5959345,-1.2417993],[-45.5726811,-1.1918744],[-45.5321908,-1.2205451],[-45.5959345,-1.2417993]]],[[[-45.7718225,-1.1891598],[-45.769021,-1.1962199],[-45.7734249,-1.1943634],[-45.7718225,-1.1891598]]],[[[-45.604872,-1.1511986],[-45.6100165,-1.1589183],[-45.6082105,-1.1504346],[-45.604872,-1.1511986]]],[[[-44.6671074,-2.971828],[-44.6591591,-2.9707421],[-44.6615664,-2.9803441],[-44.6671074,-2.971828]]],[[[-44.6215942,-2.9342738],[-44.6292213,-2.9433334],[-44.6210768,-2.9263333],[-44.6215942,-2.9342738]]],[[[-44.6401699,-2.9224971],[-44.6596079,-2.9445866],[-44.6635869,-2.9448256],[-44.6643218,-2.9283221],[-44.6401699,-2.9224971]]],[[[-44.4772466,-2.7299798],[-44.4790204,-2.9578603],[-44.5827777,-3.0318234],[-44.6415526,-2.9726828],[-44.6138694,-2.9505527],[-44.5896166,-2.8948399],[-44.5803079,-2.8594035],[-44.5871879,-2.8164817],[-44.5022062,-2.7264316],[-44.4772466,-2.7299798]]],[[[-44.5885956,-2.8761016],[-44.5909688,-2.8729834],[-44.5880079,-2.8666742],[-44.5885956,-2.8761016]]],[[[-44.4132774,-2.7961212],[-44.412133,-2.7981864],[-44.41307,-2.7981243],[-44.4132774,-2.7961212]]],[[[-44.0945482,-2.7504695],[-44.0963538,-2.7507009],[-44.0946645,-2.7495175],[-44.0945482,-2.7504695]]],[[[-44.0937996,-2.7472955],[-44.0923245,-2.7467976],[-44.0926655,-2.7483595],[-44.0937996,-2.7472955]]],[[[-44.3749923,-2.5778115],[-44.373813,-2.577454],[-44.3731768,-2.5792544],[-44.3749923,-2.5778115]]],[[[-44.3664745,-2.5431862],[-44.3638234,-2.5441743],[-44.3647991,-2.5452848],[-44.3664745,-2.5431862]]],[[[-44.365583,-2.5386364],[-44.3660651,-2.5397574],[-44.3665034,-2.5389418],[-44.365583,-2.5386364]]],[[[-44.3639435,-2.5288614],[-44.3706053,-2.5200729],[-44.3614469,-2.5226],[-44.3639435,-2.5288614]]],[[[-44.3598442,-2.5228764],[-44.359532,-2.5236508],[-44.3602533,-2.5234142],[-44.3598442,-2.5228764]]],[[[-44.4199875,-2.4165949],[-44.4281691,-2.4203255],[-44.4255158,-2.4148951],[-44.4199875,-2.4165949]]],[[[-44.4678911,-2.0771177],[-44.4835154,-2.0769348],[-44.4664527,-2.0692215],[-44.4678911,-2.0771177]]],[[[-44.53955,-2.0200925],[-44.5354195,-2.021745],[-44.5414779,-2.0209884],[-44.53955,-2.0200925]]],[[[-44.7549983,-1.6919979],[-44.7384726,-1.6790913],[-44.7316537,-1.6882467],[-44.7417285,-1.6988696],[-44.7549983,-1.6919979]]],[[[-44.7453498,-1.6792671],[-44.7471188,-1.6772875],[-44.745367,-1.6777907],[-44.7453498,-1.6792671]]],[[[-44.7420092,-1.668344],[-44.7263244,-1.6616738],[-44.726933,-1.6724742],[-44.7420092,-1.668344]]],[[[-44.7626036,-1.5800231],[-44.7488232,-1.53437],[-44.7322558,-1.5441424],[-44.7626036,-1.5800231]]],[[[-44.7506781,-1.5172858],[-44.7946893,-1.5237136],[-44.772185,-1.4858597],[-44.7758603,-1.4785036],[-44.7935358,-1.4704388],[-44.7627769,-1.4582287],[-44.7423289,-1.4926994],[-44.7506781,-1.5172858]]]]}}],"metadata":{"fonte":"IBGE","versao":"simplificada","descricao":"Versão otimizada para web"}}